{
"type": "FeatureCollection",
"name": "access_controls",
"crs": { "type": "name", "properties": { "name": "urn:ogc:def:crs:OGC:1.3:CRS84" } },
"features": [
{ "type": "Feature", "properties": { "asset_id": "AC-01", "asset_type": "bicycle_parking", "asset_name": "Bicycle Parking", "authority": "OpenStreetMap mapped point", "precision": "mapped point", "verification_required": "yes" }, "geometry": { "type": "Point", "coordinates": [ -87.5733117, 41.78052970000001 ] } },
{ "type": "Feature", "properties": { "asset_id": "AC-02", "asset_type": "swing_gate", "asset_name": "Swing Gate", "authority": "OpenStreetMap mapped point", "precision": "mapped point", "verification_required": "yes" }, "geometry": { "type": "Point", "coordinates": [ -87.5743957, 41.7806704 ] } },
{ "type": "Feature", "properties": { "asset_id": "AC-03", "asset_type": "swing_gate", "asset_name": "Swing Gate", "authority": "OpenStreetMap mapped point", "precision": "mapped point", "verification_required": "yes" }, "geometry": { "type": "Point", "coordinates": [ -87.574393200000017, 41.7807403 ] } },
{ "type": "Feature", "properties": { "asset_id": "AC-04", "asset_type": "toll_booth", "asset_name": "Toll Booth", "authority": "OpenStreetMap mapped point", "precision": "mapped point", "verification_required": "yes" }, "geometry": { "type": "Point", "coordinates": [ -87.5737227, 41.7806697 ] } },
{ "type": "Feature", "properties": { "asset_id": "AC-05", "asset_type": "lift_gate", "asset_name": "Lift Gate", "authority": "OpenStreetMap mapped point", "precision": "mapped point", "verification_required": "yes" }, "geometry": { "type": "Point", "coordinates": [ -87.5738616, 41.7807149 ] } },
{ "type": "Feature", "properties": { "asset_id": "AC-06", "asset_type": "bollard", "asset_name": "Bollard", "authority": "OpenStreetMap mapped point", "precision": "mapped point", "verification_required": "yes" }, "geometry": { "type": "Point", "coordinates": [ -87.5743933, 41.7807013 ] } }
]
}
