{
"type": "FeatureCollection",
"name": "asset_dunes",
"crs": { "type": "name", "properties": { "name": "urn:ogc:def:crs:OGC:1.3:CRS84" } },
"features": [
{ "type": "Feature", "properties": { "osm_type": "relation", "osm_id": 20660684, "asset_type": "natural area", "asset_name": "63rd Street Beach Dunes - north and south sections", "authority": "CPD confirms approximately 12 acres; OSM community geometry", "confidence": "medium", "spatial_precision": "mapped multipolygon", "field_verify": "yes", "source_date": "2026-09-02 extract", "osm_tags": { "leisure": "nature_reserve", "name": "63rd St. Beach Dunes", "type": "multipolygon" } }, "geometry": { "type": "MultiPolygon", "coordinates": [ [ [ [ -87.5727577, 41.7813063 ], [ -87.572787, 41.7812914 ], [ -87.5728178, 41.7812912 ], [ -87.5728133, 41.7812804 ], [ -87.5726827, 41.7811045 ], [ -87.572603, 41.7810486 ], [ -87.5725702, 41.7810805 ], [ -87.5725353, 41.7811047 ], [ -87.5725007, 41.7811196 ], [ -87.5724643, 41.7811308 ], [ -87.5724196, 41.7811377 ], [ -87.5723807, 41.7811362 ], [ -87.5723327, 41.7811307 ], [ -87.5722905, 41.7811191 ], [ -87.5722469, 41.7811037 ], [ -87.5722175, 41.7810858 ], [ -87.5721974, 41.781068 ], [ -87.5721844, 41.7810503 ], [ -87.5721786, 41.7810418 ], [ -87.572104, 41.7810471 ], [ -87.5718659, 41.7810352 ], [ -87.5717164, 41.7810159 ], [ -87.5716037, 41.7810007 ], [ -87.5715484, 41.7809984 ], [ -87.5714843, 41.7809766 ], [ -87.571343, 41.7809962 ], [ -87.5708193, 41.781075 ], [ -87.5707626, 41.7810703 ], [ -87.570733, 41.7810569 ], [ -87.5706688, 41.7810705 ], [ -87.5705439, 41.781097 ], [ -87.5707278, 41.7811536 ], [ -87.5712485, 41.7812319 ], [ -87.5717487, 41.7814017 ], [ -87.5718534, 41.7811834 ], [ -87.5727447, 41.7813304 ], [ -87.5727577, 41.7813063 ] ] ], [ [ [ -87.5752848, 41.7824903 ], [ -87.5751973, 41.7824171 ], [ -87.5751366, 41.7823283 ], [ -87.5751062, 41.7822387 ], [ -87.5751006, 41.7821216 ], [ -87.575112, 41.7820541 ], [ -87.5750791, 41.7820166 ], [ -87.5749893, 41.7820171 ], [ -87.5749162, 41.7820091 ], [ -87.5747539, 41.7819096 ], [ -87.5745896, 41.7818086 ], [ -87.5745434, 41.7817876 ], [ -87.5745175, 41.7817943 ], [ -87.5742345, 41.7822781 ], [ -87.5741298, 41.782457 ], [ -87.5761, 41.7834772 ], [ -87.575949, 41.7831895 ], [ -87.5759425, 41.783177 ], [ -87.575986, 41.7831549 ], [ -87.5756287, 41.7826198 ], [ -87.575453, 41.7825738 ], [ -87.5753666, 41.7825381 ], [ -87.5752848, 41.7824903 ] ] ] ] } }
]
}
