{
"type": "FeatureCollection",
"name": "asset_beach_house",
"crs": { "type": "name", "properties": { "name": "urn:ogc:def:crs:OGC:1.3:CRS84" } },
"features": [
{ "type": "Feature", "properties": { "osm_type": "way", "osm_id": 125954267, "asset_type": "building", "asset_name": "63rd Street Beach House / Pavilion", "authority": "CPD facility confirmation + OSM geometry with Chicago building ID", "confidence": "high", "spatial_precision": "building footprint", "field_verify": "yes", "source_date": "2026-09-02 extract", "osm_tags": { "addr:city": "Chicago", "addr:housenumber": "6245", "addr:postcode": "60637", "addr:state": "IL", "addr:street": "South Lake Shore Drive", "building": "public", "chicago:building_id": "869296", "ele": "179", "gnis:feature_id": "1836714", "name": "63rd Street Beach Pavilion", "operator": "Chicago Park District", "source": "USGS Geonames", "wikidata": "Q49321310" } }, "geometry": { "type": "Polygon", "coordinates": [ [ [ -87.5728362, 41.7813328 ], [ -87.5728881, 41.781249 ], [ -87.5729511, 41.7812739 ], [ -87.5731215, 41.7810252 ], [ -87.5731005, 41.781016 ], [ -87.5731289, 41.7809607 ], [ -87.5731993, 41.7809884 ], [ -87.5731841, 41.7810092 ], [ -87.5732229, 41.7810259 ], [ -87.5730412, 41.7813006 ], [ -87.5736081, 41.7815115 ], [ -87.5737601, 41.7812757 ], [ -87.5736971, 41.7812535 ], [ -87.5737187, 41.7812122 ], [ -87.5737303, 41.7811951 ], [ -87.5738023, 41.7812216 ], [ -87.5737922, 41.7812361 ], [ -87.5739083, 41.7812776 ], [ -87.5739169, 41.7812619 ], [ -87.5740009, 41.7812905 ], [ -87.5739846, 41.7813141 ], [ -87.5739577, 41.7813531 ], [ -87.5738848, 41.7813264 ], [ -87.5737329, 41.7815594 ], [ -87.5740966, 41.7816979 ], [ -87.5743085, 41.7817786 ], [ -87.574495, 41.7814986 ], [ -87.5745283, 41.7815097 ], [ -87.5745419, 41.7814885 ], [ -87.5746111, 41.7815143 ], [ -87.574574, 41.7815686 ], [ -87.5745567, 41.7815622 ], [ -87.5743863, 41.7818099 ], [ -87.5744394, 41.7818293 ], [ -87.5743826, 41.7819103 ], [ -87.5742702, 41.7818707 ], [ -87.57428, 41.7818569 ], [ -87.5738428, 41.7816902 ], [ -87.5738292, 41.7817077 ], [ -87.5733735, 41.7815364 ], [ -87.5733809, 41.7815207 ], [ -87.5729548, 41.7813595 ], [ -87.5729461, 41.7813734 ], [ -87.5728362, 41.7813328 ] ] ] } }
]
}
