{
"type": "FeatureCollection",
"name": "asset_beach",
"crs": { "type": "name", "properties": { "name": "urn:ogc:def:crs:OGC:1.3:CRS84" } },
"features": [
{ "type": "Feature", "properties": { "osm_type": "way", "osm_id": 24925308, "asset_type": "beach", "asset_name": "63rd Street Beach sand/operational beach candidate", "authority": "CPD facility confirmation + OSM geometry", "confidence": "medium", "spatial_precision": "mapped beach polygon", "field_verify": "yes", "source_date": "2026-09-02 extract", "osm_tags": { "access": "yes", "gnis:feature_id": "1737732", "name": "63rd Street Beach", "natural": "beach", "operator": "Chicago Park District", "surface": "sand", "wikidata": "Q49321310" } }, "geometry": { "type": "Polygon", "coordinates": [ [ [ -87.5761074, 41.7836371 ], [ -87.5761515, 41.7836283 ], [ -87.5761, 41.7834772 ], [ -87.575949, 41.7831895 ], [ -87.57576, 41.7829973 ], [ -87.5753692, 41.7826381 ], [ -87.5749912, 41.7823446 ], [ -87.5747756, 41.7821933 ], [ -87.5743961, 41.7819981 ], [ -87.5743655, 41.7819824 ], [ -87.5743567, 41.7819788 ], [ -87.5743412, 41.7819632 ], [ -87.5743377, 41.7819376 ], [ -87.5743436, 41.7819118 ], [ -87.5741309, 41.7818314 ], [ -87.5741106, 41.7818621 ], [ -87.5740588, 41.7818609 ], [ -87.5740122, 41.7818484 ], [ -87.5739786, 41.781833 ], [ -87.5739421, 41.7818002 ], [ -87.5739214, 41.7817874 ], [ -87.573893, 41.7817773 ], [ -87.5738905, 41.7817863 ], [ -87.573793, 41.7817742 ], [ -87.5737939, 41.781762 ], [ -87.5737668, 41.7817564 ], [ -87.5737333, 41.7817474 ], [ -87.5736941, 41.781727 ], [ -87.5736842, 41.7817355 ], [ -87.5736463, 41.7817111 ], [ -87.5736593, 41.7817007 ], [ -87.5736227, 41.7816777 ], [ -87.5735726, 41.7816572 ], [ -87.573514, 41.7816469 ], [ -87.5735124, 41.7816569 ], [ -87.573464, 41.781654 ], [ -87.5734612, 41.7816422 ], [ -87.5734139, 41.7816262 ], [ -87.5733657, 41.7816015 ], [ -87.5733442, 41.7816067 ], [ -87.5733268, 41.7816028 ], [ -87.5732223, 41.7817684 ], [ -87.573213, 41.7817655 ], [ -87.5732025, 41.7817622 ], [ -87.5733076, 41.7815964 ], [ -87.5732874, 41.7815785 ], [ -87.5732814, 41.7815626 ], [ -87.5732874, 41.7815496 ], [ -87.5732532, 41.7815397 ], [ -87.5732179, 41.7815355 ], [ -87.5731722, 41.7815334 ], [ -87.5731404, 41.7815223 ], [ -87.5731005, 41.7814997 ], [ -87.5730722, 41.7814741 ], [ -87.5730893, 41.7814444 ], [ -87.57287, 41.7813625 ], [ -87.5728442, 41.7813772 ], [ -87.5728272, 41.7814054 ], [ -87.572823, 41.7814123 ], [ -87.5728189, 41.7814192 ], [ -87.5727982, 41.7814129 ], [ -87.5727802, 41.7813741 ], [ -87.5727602, 41.7813629 ], [ -87.5727463, 41.7813466 ], [ -87.5727447, 41.7813304 ], [ -87.5718534, 41.7811834 ], [ -87.5712269, 41.7810958 ], [ -87.5707461, 41.7810801 ], [ -87.5704198, 41.7811269 ], [ -87.571733, 41.7815911 ], [ -87.573071, 41.7821232 ], [ -87.5746794, 41.7829098 ], [ -87.5761074, 41.7836371 ] ] ] } }
]
}
