{
"type": "FeatureCollection",
"name": "asset_boat_launch",
"crs": { "type": "name", "properties": { "name": "urn:ogc:def:crs:OGC:1.3:CRS84" } },
"features": [
{ "type": "Feature", "properties": { "osm_type": "way", "osm_id": 32972642, "asset_type": "boat launch", "asset_name": "Non-motorized boat launch", "authority": "CPD facility confirmation + OSM slipway geometry", "confidence": "high", "spatial_precision": "mapped slipway centerline", "field_verify": "yes", "source_date": "2026-09-02 extract", "osm_tags": { "highway": "service", "leisure": "slipway", "service": "slipway" } }, "geometry": { "type": "LineString", "coordinates": [ [ -87.5761425, 41.7800226 ], [ -87.5762332, 41.7799682 ], [ -87.5764324, 41.7799122 ] ] } },
{ "type": "Feature", "properties": { "osm_type": "way", "osm_id": 890494646, "asset_type": "boat launch", "asset_name": "Non-motorized boat launch", "authority": "CPD facility confirmation + OSM slipway geometry", "confidence": "high", "spatial_precision": "mapped slipway centerline", "field_verify": "yes", "source_date": "2026-09-02 extract", "osm_tags": { "highway": "service", "leisure": "slipway", "service": "slipway" } }, "geometry": { "type": "LineString", "coordinates": [ [ -87.5764514, 41.7799539 ], [ -87.5762587, 41.7800077 ], [ -87.5761425, 41.7800226 ] ] } }
]
}
