{
"type": "FeatureCollection",
"name": "asset_safety_references",
"crs": { "type": "name", "properties": { "name": "urn:ogc:def:crs:OGC:1.3:CRS84" } },
"features": [
{ "type": "Feature", "properties": { "asset_type": "lifeguard office", "asset_name": "Lifeguard office / beach wheelchair checkout", "authority": "CPD facility page", "confidence": "high", "spatial_precision": "associated with Beach House; interior location not mapped", "field_verify": "yes", "source_date": "accessed 2026-09-02" }, "geometry": { "type": "Point", "coordinates": [ -87.573694670064413, 41.781489723228447 ] } },
{ "type": "Feature", "properties": { "asset_type": "life ring coverage", "asset_name": "Life ring #025 coverage: 59th to 63rd Street Beach", "authority": "CPD Beaches / Life Ring Locations", "confidence": "high", "spatial_precision": "generalized symbol; exact cabinet coordinate unpublished", "field_verify": "yes", "source_date": "accessed 2026-09-02" }, "geometry": { "type": "Point", "coordinates": [ -87.5739, 41.7809 ] } },
{ "type": "Feature", "properties": { "asset_type": "swimming area", "asset_name": "Designated swimming area - limits set operationally", "authority": "CPD beach page", "confidence": "high", "spatial_precision": "generalized symbol; buoy line/seasonal limits require field verification", "field_verify": "yes", "source_date": "accessed 2026-09-02" }, "geometry": { "type": "Point", "coordinates": [ -87.5737, 41.781 ] } },
{ "type": "Feature", "properties": { "asset_type": "distance swimming", "asset_name": "64th Street distance swimming, parallel to shore between 1st and 3rd buoys", "authority": "CPD beach page", "confidence": "high", "spatial_precision": "generalized reference; buoy numbering unpublished in GIS", "field_verify": "yes", "source_date": "accessed 2026-09-02" }, "geometry": { "type": "Point", "coordinates": [ -87.5746, 41.7776 ] } }
]
}
