{
"type": "FeatureCollection",
"name": "asset_harbor_facilities",
"crs": { "type": "name", "properties": { "name": "urn:ogc:def:crs:OGC:1.3:CRS84" } },
"features": [
{ "type": "Feature", "properties": { "asset_type": "boathouse", "asset_name": "Jackson Harbor Station", "authority": "OpenStreetMap (Overpass API)", "confidence": "high-precision, community-mapped", "spatial_precision": "exact node coordinate", "verification_required": "confirm CPD/harbor-operator relationship to Bongo Beach footprint", "source_date": "queried 2026-09-03" }, "geometry": { "type": "Point", "coordinates": [ -87.575186, 41.7786298 ] } }
]
}
