{
"type": "FeatureCollection",
"name": "asset_safety_buoys",
"crs": { "type": "name", "properties": { "name": "urn:ogc:def:crs:OGC:1.3:CRS84" } },
"features": [
{ "type": "Feature", "properties": { "osm_type": "node", "osm_id": 12018878419, "asset_type": "safety buoy", "asset_name": "Candidate 64th Street buoy positions", "authority": "CPD confirms distance swimming between first and third buoys; OSM supplies candidate points", "confidence": "medium", "spatial_precision": "individual mapped point", "field_verify": "yes", "source_date": "2026-09-02 extract", "osm_tags": { "man_made": "buoy", "seamark:type": "buoy_lateral" } }, "geometry": { "type": "Point", "coordinates": [ -87.5747259, 41.7774009 ] } },
{ "type": "Feature", "properties": { "osm_type": "node", "osm_id": 12018878420, "asset_type": "safety buoy", "asset_name": "Candidate 64th Street buoy positions", "authority": "CPD confirms distance swimming between first and third buoys; OSM supplies candidate points", "confidence": "medium", "spatial_precision": "individual mapped point", "field_verify": "yes", "source_date": "2026-09-02 extract", "osm_tags": { "man_made": "buoy", "seamark:type": "buoy_lateral" } }, "geometry": { "type": "Point", "coordinates": [ -87.5741785, 41.7760086 ] } },
{ "type": "Feature", "properties": { "osm_type": "node", "osm_id": 12018878421, "asset_type": "safety buoy", "asset_name": "Candidate 64th Street buoy positions", "authority": "CPD confirms distance swimming between first and third buoys; OSM supplies candidate points", "confidence": "medium", "spatial_precision": "individual mapped point", "field_verify": "yes", "source_date": "2026-09-02 extract", "osm_tags": { "man_made": "buoy", "seamark:type": "buoy_lateral" } }, "geometry": { "type": "Point", "coordinates": [ -87.5747035, 41.7780797 ] } },
{ "type": "Feature", "properties": { "osm_type": "node", "osm_id": 12018878422, "asset_type": "safety buoy", "asset_name": "Candidate 64th Street buoy positions", "authority": "CPD confirms distance swimming between first and third buoys; OSM supplies candidate points", "confidence": "medium", "spatial_precision": "individual mapped point", "field_verify": "yes", "source_date": "2026-09-02 extract", "osm_tags": { "man_made": "buoy", "seamark:type": "buoy_lateral" } }, "geometry": { "type": "Point", "coordinates": [ -87.5744743, 41.7785544 ] } }
]
}
