{
"type": "FeatureCollection",
"name": "asset_parking",
"crs": { "type": "name", "properties": { "name": "urn:ogc:def:crs:OGC:1.3:CRS84" } },
"features": [
{ "type": "Feature", "properties": { "osm_type": "way", "osm_id": 125954275, "asset_type": "parking", "asset_name": "63rd Street Beach pay-and-display parking lot", "authority": "CPD facility confirmation + OSM geometry", "confidence": "high", "spatial_precision": "mapped lot polygon", "field_verify": "yes", "source_date": "2026-09-02 extract", "osm_tags": { "access": "yes", "alt_name": "SP Plus", "amenity": "parking", "brand": "SP+", "brand:wikidata": "Q7598289", "fee": "yes", "name": "63rd Street Beach", "operator": "SP+", "operator:type": "private", "operator:wikidata": "Q7598289", "parking": "surface", "payment:app": "yes" } }, "geometry": { "type": "Polygon", "coordinates": [ [ [ -87.5744589, 41.7805776 ], [ -87.5744596, 41.7804477 ], [ -87.5744716, 41.7803228 ], [ -87.5744831, 41.7802359 ], [ -87.5745096, 41.7801185 ], [ -87.5745287, 41.7800366 ], [ -87.5745007, 41.7800294 ], [ -87.574529, 41.7799794 ], [ -87.5744046, 41.7799455 ], [ -87.5743569, 41.7799818 ], [ -87.574222, 41.7800846 ], [ -87.5740609, 41.7802073 ], [ -87.5739207, 41.7803123 ], [ -87.5738659, 41.7803479 ], [ -87.573778, 41.7804087 ], [ -87.5736011, 41.7805106 ], [ -87.5734227, 41.7805953 ], [ -87.5733893, 41.7806072 ], [ -87.573334, 41.7806269 ], [ -87.5732795, 41.7806462 ], [ -87.5732116, 41.7806703 ], [ -87.5730639, 41.7807137 ], [ -87.5727007, 41.7808096 ], [ -87.5726261, 41.7808317 ], [ -87.5726079, 41.7808322 ], [ -87.5725886, 41.7808266 ], [ -87.5725276, 41.7807958 ], [ -87.5725034, 41.7807836 ], [ -87.5724653, 41.7807728 ], [ -87.572419, 41.780768 ], [ -87.5723713, 41.7807691 ], [ -87.5723316, 41.7807758 ], [ -87.5722906, 41.7807897 ], [ -87.5722515, 41.7808048 ], [ -87.5722138, 41.780832 ], [ -87.5721807, 41.7808712 ], [ -87.5721606, 41.7809042 ], [ -87.5721475, 41.7809413 ], [ -87.5721513, 41.7809911 ], [ -87.5721639, 41.7810192 ], [ -87.5721711, 41.7810315 ], [ -87.5721786, 41.7810418 ], [ -87.5721844, 41.7810503 ], [ -87.5721974, 41.781068 ], [ -87.5722175, 41.7810858 ], [ -87.5722469, 41.7811037 ], [ -87.5722905, 41.7811191 ], [ -87.5723327, 41.7811307 ], [ -87.5723807, 41.7811362 ], [ -87.5724196, 41.7811377 ], [ -87.5724643, 41.7811308 ], [ -87.5725007, 41.7811196 ], [ -87.5725353, 41.7811047 ], [ -87.5725702, 41.7810805 ], [ -87.572603, 41.7810486 ], [ -87.5726243, 41.7810043 ], [ -87.5726507, 41.7809673 ], [ -87.5731273, 41.7808556 ], [ -87.5732125, 41.7808353 ], [ -87.5732613, 41.7808255 ], [ -87.5733725, 41.7808048 ], [ -87.5733927, 41.7808011 ], [ -87.5734956, 41.7807886 ], [ -87.5735156, 41.7807862 ], [ -87.5736408, 41.7807743 ], [ -87.5736374, 41.78069 ], [ -87.5736356, 41.780646 ], [ -87.5737063, 41.7806459 ], [ -87.5742218, 41.7806456 ], [ -87.5742216, 41.780634 ], [ -87.5742256, 41.7806274 ], [ -87.5742992, 41.7806264 ], [ -87.5743371, 41.7806237 ], [ -87.5743629, 41.7806131 ], [ -87.5743823, 41.7805982 ], [ -87.5744044, 41.7805783 ], [ -87.5744589, 41.7805776 ] ] ] } }
]
}
