{
"type": "FeatureCollection",
"name": "asset_public_art",
"crs": { "type": "name", "properties": { "name": "urn:ogc:def:crs:OGC:1.3:CRS84" } },
"features": [
{ "type": "Feature", "properties": { "asset_type": "public art", "asset_name": "A Remembrance (by Carolyn Ottmers)", "authority": "Google Maps listing / Chicago Park District", "confidence": "high-precision pin", "spatial_precision": "exact pin coordinate", "verification_required": "no", "source_date": "pinned 2026-09-03" }, "geometry": { "type": "Point", "coordinates": [ -87.574089, 41.780865 ] } },
{ "type": "Feature", "properties": { "asset_type": "public art", "asset_name": "Next Wave", "authority": "Google Maps listing", "confidence": "high-precision pin", "spatial_precision": "exact pin coordinate", "verification_required": "no", "source_date": "pinned 2026-09-03" }, "geometry": { "type": "Point", "coordinates": [ -87.5738425, 41.7815974 ] } }
]
}
