{
"type": "FeatureCollection",
"name": "asset_underpasses",
"crs": { "type": "name", "properties": { "name": "urn:ogc:def:crs:OGC:1.3:CRS84" } },
"features": [
{ "type": "Feature", "properties": { "osm_type": "way", "osm_id": 24925364, "asset_type": "underpass", "asset_name": "Pedestrian underpass connections", "authority": "OSM tunnel geometry; CPD dunes description confirms underpass connection", "confidence": "medium", "spatial_precision": "mapped tunnel centerlines", "field_verify": "yes", "source_date": "2026-09-02 extract", "osm_tags": { "bicycle": "yes", "foot": "yes", "highway": "footway", "layer": "-1", "tunnel": "yes" } }, "geometry": { "type": "LineString", "coordinates": [ [ -87.5751704, 41.7819881 ], [ -87.5755207, 41.7818494 ] ] } },
{ "type": "Feature", "properties": { "osm_type": "way", "osm_id": 1187687380, "asset_type": "underpass", "asset_name": "Pedestrian underpass connections", "authority": "OSM tunnel geometry; CPD dunes description confirms underpass connection", "confidence": "medium", "spatial_precision": "mapped tunnel centerlines", "field_verify": "yes", "source_date": "2026-09-02 extract", "osm_tags": { "highway": "footway", "layer": "-1", "tunnel": "yes" } }, "geometry": { "type": "LineString", "coordinates": [ [ -87.5751949, 41.7806196 ], [ -87.5752495, 41.7808824 ] ] } }
]
}
