{
"type": "FeatureCollection",
"name": "beach_house_subspaces",
"crs": { "type": "name", "properties": { "name": "urn:ogc:def:crs:OGC:1.3:CRS84" } },
"features": [
{ "type": "Feature", "properties": { "asset_id": "BH-01", "asset_type": "fountain_courtyard", "asset_name": "Fountain Courtyard / interactive water-play feature", "authority": "CPD official facility layout; spray feature and fountain capital records", "precision": "plan-derived", "verification_required": "field survey" }, "geometry": { "type": "Polygon", "coordinates": [ [ [ -87.574531728506003, 41.781490156583949 ], [ -87.573946512979191, 41.781279449982343 ], [ -87.573736899993548, 41.781605601120638 ], [ -87.574322117768176, 41.781816308797119 ], [ -87.574531728506003, 41.781490156583949 ] ] ] } },
{ "type": "Feature", "properties": { "asset_id": "BH-02", "asset_type": "town_square_courtyard", "asset_name": "Town Square Courtyard / current Serenity Courtyard", "authority": "CPD layout calls it Town Square; current venue page calls Serenity Courtyard", "precision": "plan-derived", "verification_required": "field survey" }, "geometry": { "type": "Polygon", "coordinates": [ [ [ -87.573758339276324, 41.781211697196589 ], [ -87.573173128858599, 41.781000986687062 ], [ -87.572963512902447, 41.781327136404848 ], [ -87.573548725567917, 41.78153784798927 ], [ -87.573758339276324, 41.781211697196589 ] ] ] } },
{ "type": "Feature", "properties": { "asset_id": "BH-03", "asset_type": "central_covered_pavilion", "asset_name": "Central covered pavilion / upper loggia", "authority": "CPD official facility layout", "precision": "plan-derived", "verification_required": "architectural survey" }, "geometry": { "type": "Polygon", "coordinates": [ [ [ -87.573863862609244, 41.781651314383467 ], [ -87.573421763403871, 41.781492134380969 ], [ -87.573383619233553, 41.781551484644964 ], [ -87.573825718747926, 41.781710664795227 ], [ -87.573863862609244, 41.781651314383467 ] ] ] } },
{ "type": "Feature", "properties": { "asset_id": "BH-04", "asset_type": "front_entry_spine", "asset_name": "Central stair and front-entry spine", "authority": "CPD official facility layout", "precision": "plan-derived", "verification_required": "architectural survey" }, "geometry": { "type": "Polygon", "coordinates": [ [ [ -87.573959227483428, 41.781259666497434 ], [ -87.573771053824416, 41.781191913732648 ], [ -87.573548725567917, 41.78153784798927 ], [ -87.573736899993548, 41.781605601120638 ], [ -87.573959227483428, 41.781259666497434 ] ] ] } },
{ "type": "Feature", "properties": { "asset_id": "BH-05", "asset_type": "west_open_balcony", "asset_name": "West open balcony / promenade segment", "authority": "CPD official facility layout", "precision": "plan-derived", "verification_required": "architectural survey" }, "geometry": { "type": "Polygon", "coordinates": [ [ [ -87.574322117768176, 41.781816308797119 ], [ -87.573863862609244, 41.781651314383467 ], [ -87.573825718747926, 41.781710664795227 ], [ -87.574283974227171, 41.781875659362036 ], [ -87.574322117768176, 41.781816308797119 ] ] ] } },
{ "type": "Feature", "properties": { "asset_id": "BH-06", "asset_type": "east_open_balcony", "asset_name": "East open balcony / promenade segment", "authority": "CPD official facility layout", "precision": "plan-derived", "verification_required": "architectural survey" }, "geometry": { "type": "Polygon", "coordinates": [ [ [ -87.573421763403871, 41.781492134380969 ], [ -87.572963512902447, 41.781327136404848 ], [ -87.572925368411859, 41.781386486515679 ], [ -87.573383619233553, 41.781551484644964 ], [ -87.573421763403871, 41.781492134380969 ] ] ] } },
{ "type": "Feature", "properties": { "asset_id": "BH-07", "asset_type": "west_terminal_pavilion", "asset_name": "West terminal covered pavilion", "authority": "CPD official facility layout", "precision": "plan-derived", "verification_required": "architectural survey" }, "geometry": { "type": "Polygon", "coordinates": [ [ [ -87.574436855976941, 41.781833258464417 ], [ -87.574334832266075, 41.781796525272391 ], [ -87.574283974227171, 41.781875659362036 ], [ -87.574385998033122, 41.781912392599509 ], [ -87.574436855976941, 41.781833258464417 ] ] ] } },
{ "type": "Feature", "properties": { "asset_id": "BH-08", "asset_type": "east_terminal_pavilion", "asset_name": "East terminal covered pavilion", "authority": "CPD official facility layout", "precision": "plan-derived", "verification_required": "architectural survey" }, "geometry": { "type": "Polygon", "coordinates": [ [ [ -87.572976227716879, 41.78130735303148 ], [ -87.572874205688208, 41.781270618552789 ], [ -87.572823346288104, 41.781349751991513 ], [ -87.572925368411859, 41.781386486515679 ], [ -87.572976227716879, 41.78130735303148 ] ] ] } }
]
}
