{
"type": "FeatureCollection",
"name": "beach_house_entries",
"crs": { "type": "name", "properties": { "name": "urn:ogc:def:crs:OGC:1.3:CRS84" } },
"features": [
{ "type": "Feature", "properties": { "asset_id": "EN-OSM-01", "asset_type": "published entrance", "asset_name": "Published building entrance", "authority": "OpenStreetMap mapped entrance", "precision": "mapped point", "verification_required": "yes" }, "geometry": { "type": "Point", "coordinates": [ -87.5740966, 41.7816979 ] } },
{ "type": "Feature", "properties": { "asset_id": "EN-01", "asset_type": "primary entrance", "asset_name": "Parking-side central front entry", "authority": "CPD official layout", "precision": "plan-derived", "verification_required": "yes" }, "geometry": { "type": "Point", "coordinates": [ -87.573865140603957, 41.781225790153243 ] } },
{ "type": "Feature", "properties": { "asset_id": "EN-02", "asset_type": "beach entrance", "asset_name": "Central beach-side passage", "authority": "CPD official layout / beach-side designation", "precision": "plan-derived", "verification_required": "yes" }, "geometry": { "type": "Point", "coordinates": [ -87.573604668714935, 41.781631074931042 ] } },
{ "type": "Feature", "properties": { "asset_id": "EN-03", "asset_type": "courtyard entrance", "asset_name": "Fountain Courtyard parking-side entry", "authority": "CPD official layout", "precision": "plan-derived", "verification_required": "yes" }, "geometry": { "type": "Point", "coordinates": [ -87.57423912025935, 41.781384803652777 ] } },
{ "type": "Feature", "properties": { "asset_id": "EN-04", "asset_type": "courtyard entrance", "asset_name": "Town Square/Serenity parking-side entry", "authority": "CPD official layout", "precision": "plan-derived", "verification_required": "yes" }, "geometry": { "type": "Point", "coordinates": [ -87.573465733584229, 41.781106342311453 ] } },
{ "type": "Feature", "properties": { "asset_id": "EN-05", "asset_type": "beach access", "asset_name": "West promenade beach access", "authority": "CPD official layout", "precision": "plan-derived", "verification_required": "yes" }, "geometry": { "type": "Point", "coordinates": [ -87.574054846191231, 41.781793162305277 ] } },
{ "type": "Feature", "properties": { "asset_id": "EN-06", "asset_type": "beach access", "asset_name": "East promenade beach access", "authority": "CPD official layout", "precision": "plan-derived", "verification_required": "yes" }, "geometry": { "type": "Point", "coordinates": [ -87.573154493526374, 41.78146898580696 ] } }
]
}
