{
 "type": "FeatureCollection",
 "name": "bongo_beach_proposed_candidate1_draft",
 "features": [
  {
   "type": "Feature",
   "properties": {
    "candidate": "Proposed Bongo Beach administrative boundary - Candidate 1 (DRAFT)",
    "status": "DRAFT - not confirmed, not surveyed, not submitted to CPD",
    "north_control": "Cross-shore line ~41.7837N, immediately north of the 63rd St Beach dune system, near E 61st St extended",
    "south_control": "Cross-shore line ~41.7759N, immediately south of the 64th St distance-swimming buoy system, near E 65th St extended",
    "east_control": "Existing lakeward boundary of Jackson Park #19",
    "west_control": "Provisional DuSable Lake Shore Drive ROW alignment - UNRESOLVED, needs official ROW/survey line",
    "approx_acres": 52.16
   },
   "geometry": {
    "type": "Polygon",
    "coordinates": [
     [
      [
       -87.57513275254989,
       41.78365491175948
      ],
      [
       -87.57473788327437,
       41.7834284679511
      ],
      [
       -87.57430387028988,
       41.783161076257876
      ],
      [
       -87.573778251688,
       41.78288963163184
      ],
      [
       -87.57319641855997,
       41.78261913617253
      ],
      [
       -87.57278608217113,
       41.78244317239523
      ],
      [
       -87.57233527484087,
       41.78227462539249
      ],
      [
       -87.57213890805713,
       41.78220712860258
      ],
      [
       -87.57201535863378,
       41.78215012239942
      ],
      [
       -87.57177029490076,
       41.782076642626606
      ],
      [
       -87.57123842569486,
       41.781918615670016
      ],
      [
       -87.57103311093704,
       41.78187696352271
      ],
      [
       -87.57073749762316,
       41.7818121793649
      ],
      [
       -87.57037592851243,
       41.78174971782102
      ],
      [
       -87.56986722567986,
       41.78167335914346
      ],
      [
       -87.56958540992956,
       41.78162697692103
      ],
      [
       -87.56917610289544,
       41.78160082783616
      ],
      [
       -87.56875221663744,
       41.78160488528647
      ],
      [
       -87.56853403890659,
       41.781667746218474
      ],
      [
       -87.56847798742044,
       41.78180427100809
      ],
      [
       -87.56844626086605,
       41.78191903950485
      ],
      [
       -87.56839945392622,
       41.78195967055614
      ],
      [
       -87.56832295094553,
       41.78195494207653
      ],
      [
       -87.56788221916585,
       41.7837
      ],
      [
       -87.56776025505627,
       41.7837
      ],
      [
       -87.56796247088899,
       41.7828992219159
      ],
      [
       -87.56828151793417,
       41.78156666212321
      ],
      [
       -87.57068415839923,
       41.78099235340489
      ],
      [
       -87.57102073716294,
       41.780929382751665
      ],
      [
       -87.5729807130098,
       41.780292147436654
      ],
      [
       -87.57303642202801,
       41.78014132950264
      ],
      [
       -87.57293477117373,
       41.77987533663759
      ],
      [
       -87.57295869640565,
       41.77983643040993
      ],
      [
       -87.57303249388941,
       41.77980688300355
      ],
      [
       -87.57271171777649,
       41.77931501802415
      ],
      [
       -87.57264127676098,
       41.77932450954341
      ],
      [
       -87.57254404162333,
       41.77933148896298
      ],
      [
       -87.57242744873327,
       41.77932728373321
      ],
      [
       -87.57236046107253,
       41.779321005732065
      ],
      [
       -87.57227961408203,
       41.77929346494003
      ],
      [
       -87.57223296641085,
       41.77925833288877
      ],
      [
       -87.57214958115782,
       41.77920366550967
      ],
      [
       -87.57210826388834,
       41.779151310726775
      ],
      [
       -87.57205358330616,
       41.77909912937924
      ],
      [
       -87.57202957263002,
       41.779060828541496
      ],
      [
       -87.57196248625911,
       41.778958793330254
      ],
      [
       -87.57195000568943,
       41.77891464095368
      ],
      [
       -87.57191816882525,
       41.7788593048321
      ],
      [
       -87.5718811661911,
       41.77882833587613
      ],
      [
       -87.57183254382923,
       41.77879037066088
      ],
      [
       -87.57181818777185,
       41.77874767251506
      ],
      [
       -87.57177268891418,
       41.77867964802696
      ],
      [
       -87.57167086639232,
       41.77857089891281
      ],
      [
       -87.57159287887349,
       41.77850186573739
      ],
      [
       -87.57148941176322,
       41.778404573374374
      ],
      [
       -87.57141708623882,
       41.77833260825553
      ],
      [
       -87.57133179367946,
       41.77827796454237
      ],
      [
       -87.57126516367784,
       41.77820449569692
      ],
      [
       -87.57115201836702,
       41.778101610647916
      ],
      [
       -87.5710181925372,
       41.777992879110506
      ],
      [
       -87.57084643114189,
       41.7778525551885
      ],
      [
       -87.57055471812146,
       41.77763134266844
      ],
      [
       -87.57023622189287,
       41.77739588345582
      ],
      [
       -87.57003861685543,
       41.77727407891953
      ],
      [
       -87.56989000040919,
       41.77719208016497
      ],
      [
       -87.56968659854059,
       41.77708137118832
      ],
      [
       -87.56952260548194,
       41.7770091619453
      ],
      [
       -87.56930025100483,
       41.776890536402334
      ],
      [
       -87.56920330949296,
       41.77682746463767
      ],
      [
       -87.56905949279644,
       41.776719257685315
      ],
      [
       -87.5689044529043,
       41.77662120120532
      ],
      [
       -87.56874072151687,
       41.77647751430093
      ],
      [
       -87.56858703127469,
       41.776355138779785
      ],
      [
       -87.56852903271131,
       41.77628917532603
      ],
      [
       -87.56846151641757,
       41.77621238653177
      ],
      [
       -87.56840891449464,
       41.77616732377398
      ],
      [
       -87.5682834985896,
       41.77602885857755
      ],
      [
       -87.5682018381267,
       41.775922203394636
      ],
      [
       -87.5681844092649,
       41.7759
      ],
      [
       -87.57348958655122,
       41.7759
      ],
      [
       -87.57352071784064,
       41.776053061758844
      ],
      [
       -87.57438703302677,
       41.78031243323351
      ],
      [
       -87.57447356381867,
       41.78059900968204
      ],
      [
       -87.57437761049081,
       41.78064189488656
      ],
      [
       -87.5743995490154,
       41.780789275690836
      ],
      [
       -87.57451985097649,
       41.78080591210721
      ],
      [
       -87.57455335953442,
       41.7808632806118
      ],
      [
       -87.57509277378837,
       41.782649736251386
      ],
      [
       -87.57528063002637,
       41.7837
      ],
      [
       -87.57520721350751,
       41.7837
      ],
      [
       -87.57513275254989,
       41.78365491175948
      ]
     ]
    ]
   }
  }
 ]
}