{
"type": "FeatureCollection",
"name": "boundary_control_points",
"crs": { "type": "name", "properties": { "name": "urn:ogc:def:crs:OGC:1.3:CRS84" } },
"features": [
{ "type": "Feature", "properties": { "control_id": "N-01", "asset_name": "North Boundary Control Point (N-01) — 59th St. Harbor pier, south side", "asset_type": "proposed boundary control point", "authority": "Committee-selected, Google Maps satellite imagery + coordinate pin-drop", "confidence": "high-precision pin, feature not yet field-verified or CPD-confirmed", "spatial_precision": "exact pin coordinate; connecting boundary line to this point not yet drawn", "verification_required": "field verification and CPD confirmation", "note": "Supersedes the earlier ~41.7886N informal line noted in the Candidate 1 v4 polygon metadata, which was pulled back to ~41.7857N to avoid the marina/tennis-court junction. This committee-selected point restores the boundary further north, anchored to the physical pier south of the 59th Street Harbor entrance rather than an arbitrary line.", "source_date": "pinned 2026-09-03" }, "geometry": { "type": "Point", "coordinates": [ -87.577448, 41.788158 ] } },
{ "type": "Feature", "properties": { "control_id": "S-01", "asset_name": "South Boundary Control Point (S-01) — S. Coast Guard Dr. bridge / Jackson Park Outer Harbor neck", "asset_type": "proposed boundary control point", "authority": "Committee-selected, Google Maps satellite imagery + coordinate pin-drop", "confidence": "high-precision pin, feature not yet field-verified or CPD-confirmed", "spatial_precision": "exact pin coordinate; connecting boundary line to this point not yet drawn", "verification_required": "field verification and CPD confirmation", "note": "Sits at the narrow bridge/neck where S. Coast Guard Drive crosses between the Inner and Outer Harbor basins, just north of the Jackson Park Outer Harbor docks. Not yet reconciled with the Candidate 1 v4 polygon's placeholder south control (~41.7799N), which was set well north of this point.", "source_date": "pinned 2026-09-03" }, "geometry": { "type": "Point", "coordinates": [ -87.5749, 41.776037 ] } }
]
}
