{
"type": "FeatureCollection",
"name": "building_amenities",
"crs": { "type": "name", "properties": { "name": "urn:ogc:def:crs:OGC:1.3:CRS84" } },
"features": [
{ "type": "Feature", "properties": { "asset_id": "AM-01", "asset_type": "water-play feature", "asset_name": "Interactive fountain / spray feature", "authority": "CPD venue layout and capital-project register", "precision": "courtyard association", "verification_required": "exact room/fixture survey" }, "geometry": { "type": "Point", "coordinates": [ -87.574134314596392, 41.781547879542963 ] } },
{ "type": "Feature", "properties": { "asset_id": "AM-02", "asset_type": "lifeguard office", "asset_name": "Lifeguard office and beach-wheelchair checkout", "authority": "CPD beach page", "precision": "building association only", "verification_required": "exact room/fixture survey" }, "geometry": { "type": "Point", "coordinates": [ -87.57369466787253, 41.781489723671967 ] } },
{ "type": "Feature", "properties": { "asset_id": "AM-03", "asset_type": "restrooms", "asset_name": "Public restrooms", "authority": "CPD beach page", "precision": "building association only", "verification_required": "exact room/fixture survey" }, "geometry": { "type": "Point", "coordinates": [ -87.573792208808655, 41.78133926995617 ] } },
{ "type": "Feature", "properties": { "asset_id": "AM-04", "asset_type": "showers", "asset_name": "Beach showers", "authority": "CPD beach page", "precision": "building association only", "verification_required": "exact room/fixture survey" }, "geometry": { "type": "Point", "coordinates": [ -87.573760952245507, 41.781387904141923 ] } },
{ "type": "Feature", "properties": { "asset_id": "AM-05", "asset_type": "meeting rooms", "asset_name": "Meeting/event rooms", "authority": "CPD beach and venue pages", "precision": "building association only", "verification_required": "exact room/fixture survey" }, "geometry": { "type": "Point", "coordinates": [ -87.573623740731719, 41.781601399763836 ] } }
]
}
