{
"type": "FeatureCollection",
"name": "concessions",
"crs": { "type": "name", "properties": { "name": "urn:ogc:def:crs:OGC:1.3:CRS84" } },
"features": [
{ "type": "Feature", "properties": { "asset_id": "CN-01", "asset_type": "concession", "asset_name": "Reggies On The Beach", "authority": "Mapped business point; current name requires seasonal verification", "precision": "mapped point", "verification_required": "yes" }, "geometry": { "type": "Point", "coordinates": [ -87.5728324, 41.781548 ] } }
]
}
