{
"type": "FeatureCollection",
"name": "ISGS_63rd_shorelines_2021_2024",
"crs": { "type": "name", "properties": { "name": "urn:ogc:def:crs:OGC:1.3:CRS84" } },
"features": [
{ "type": "Feature", "properties": { "Id": 0, "survey_file": "20210513_63rdSt_Shoreline", "source": "Illinois State Geological Survey / IDNR Coastal Management Program" }, "geometry": { "type": "LineString", "coordinates": [ [ -87.570522696371881, 41.781094063641 ], [ -87.570567420695284, 41.781110999824193 ], [ -87.570612790239124, 41.781128886023751 ], [ -87.570657535738448, 41.781148205163056 ], [ -87.570694509299116, 41.781152787693891 ], [ -87.570727696194453, 41.781161201978975 ], [ -87.570750551453713, 41.781153462526262 ], [ -87.570784935770931, 41.781153291698288 ], [ -87.570800905156958, 41.781158931787523 ], [ -87.570829558756841, 41.781158789419017 ], [ -87.570864613640694, 41.781162428189809 ], [ -87.570951397215339, 41.781182968175898 ], [ -87.571049090116645, 41.781212986256506 ], [ -87.571117463121425, 41.781239813678638 ], [ -87.571136119112083, 41.781261168802352 ], [ -87.571152118239169, 41.78127314375962 ], [ -87.571173300385567, 41.781283166609896 ], [ -87.571182079459902, 41.781285803945956 ], [ -87.571206867114853, 41.781298489847572 ], [ -87.57121644212765, 41.781301123223564 ], [ -87.571233230787527, 41.781309380585107 ], [ -87.571250393625064, 41.781314955100086 ], [ -87.571267155854073, 41.78132023371743 ], [ -87.571293113646036, 41.781330232798233 ], [ -87.571313478744713, 41.781337876588957 ], [ -87.571339821297613, 41.781346384310488 ], [ -87.57136937668804, 41.781358152804785 ], [ -87.571395339799949, 41.781368747610053 ], [ -87.571412094120959, 41.781373132584349 ], [ -87.57145243434438, 41.781389315720794 ], [ -87.571470406382275, 41.781396375612957 ], [ -87.57148120970794, 41.781402875388451 ], [ -87.571520387803261, 41.781422638926493 ], [ -87.571599555875437, 41.781463949245008 ], [ -87.57167938769615, 41.781490361853166 ], [ -87.571714734391662, 41.781526826064635 ], [ -87.571757133432044, 41.781550743911026 ], [ -87.571822725867435, 41.781587057557317 ], [ -87.571928502704282, 41.781621979574382 ], [ -87.572036285388194, 41.781658678828322 ], [ -87.572118163081242, 41.781691336570958 ], [ -87.572164505006029, 41.781711064212054 ], [ -87.572230294526676, 41.78172473722806 ], [ -87.572314812510584, 41.781740997892044 ], [ -87.572382636978489, 41.781759724762686 ], [ -87.572465690338731, 41.781790291190042 ], [ -87.572547969034957, 41.781823244513944 ], [ -87.572651854855707, 41.781869197106623 ], [ -87.572759420646122, 41.781926153078018 ], [ -87.572848977155502, 41.781971879042743 ], [ -87.572898601382619, 41.78200261183909 ], [ -87.572943006943078, 41.782028306560882 ], [ -87.573044134091077, 41.782077251424418 ], [ -87.573100884860835, 41.782103778166814 ], [ -87.573169158310591, 41.782128162184534 ], [ -87.573252244353213, 41.782162302521108 ], [ -87.573296183204249, 41.782180254372101 ], [ -87.573374912907369, 41.782216799454552 ], [ -87.573480405112861, 41.782264232710915 ], [ -87.573568301686819, 41.782302221335151 ], [ -87.573643070539504, 41.782340871216469 ], [ -87.573725440818208, 41.782383951392639 ], [ -87.573773824056374, 41.782409328039378 ], [ -87.573800217826729, 41.782423494791146 ], [ -87.573833398419708, 41.782440010733275 ], [ -87.573906559754988, 41.78247688114925 ], [ -87.573997693799853, 41.782520811009576 ], [ -87.574064490376017, 41.782558011011481 ], [ -87.574136447421907, 41.78259369574976 ], [ -87.574173247171245, 41.782614363923777 ], [ -87.574225223169151, 41.782640913970646 ], [ -87.574249611308005, 41.782653303321233 ], [ -87.574279963776462, 41.782665067078334 ], [ -87.574299218119975, 41.782681950385609 ], [ -87.574341586977056, 41.782702292778318 ], [ -87.574386762961041, 41.782725004216296 ], [ -87.574439161040289, 41.782754233038027 ], [ -87.57449511968349, 41.782781060934802 ], [ -87.574533516879072, 41.782802316778067 ], [ -87.574573866752914, 41.782819392424877 ], [ -87.574631844648167, 41.782849486912113 ], [ -87.57467182585809, 41.782869841124871 ], [ -87.574723393649421, 41.782895201438727 ], [ -87.574777354665471, 41.782921145529635 ], [ -87.574820151072672, 41.782944762362035 ], [ -87.574850105804273, 41.782956527957687 ], [ -87.574878463314974, 41.782967705764101 ], [ -87.574916120671787, 41.782995220806683 ], [ -87.57494170567152, 41.783007901906608 ], [ -87.574984494212671, 41.783030625055865 ], [ -87.575024475645904, 41.783050979143837 ], [ -87.575082809350178, 41.783076305429667 ], [ -87.575115995930318, 41.783093416742581 ], [ -87.575142740337611, 41.783102219463132 ], [ -87.575176704268912, 41.78311724165809 ], [ -87.575225054016229, 41.783138745326369 ], [ -87.575311836089099, 41.783185376909557 ], [ -87.575386203702749, 41.783223431883215 ], [ -87.575442253700714, 41.783260387013605 ], [ -87.575452633124641, 41.783263909666623 ], [ -87.575456668850677, 41.783270145077161 ], [ -87.575469446807503, 41.783274847261936 ], [ -87.575481888048827, 41.783286402531509 ], [ -87.575503060872038, 41.783295233077119 ], [ -87.575536709587567, 41.783319491238885 ], [ -87.575583934931899, 41.783348745448166 ], [ -87.575593967015664, 41.783357929680179 ], [ -87.575634758125304, 41.783379768931994 ], [ -87.575676361209787, 41.783403391422063 ], [ -87.575723554702549, 41.783429071089856 ], [ -87.57576275930883, 41.783451514020307 ], [ -87.575796341577714, 41.783468325265062 ], [ -87.575807092384025, 41.783468867155221 ], [ -87.575833519016442, 41.783486607914405 ], [ -87.575855944532691, 41.783501985627851 ], [ -87.575869139202922, 41.783508770887529 ], [ -87.575880747283264, 41.783516159872732 ], [ -87.575906335344442, 41.783529138627827 ], [ -87.57593115677625, 41.783545397976482 ], [ -87.575953213678602, 41.783564054274805 ], [ -87.575970810157926, 41.783573498436915 ], [ -87.575986790723817, 41.783580269715763 ], [ -87.576003198600489, 41.783590315605963 ], [ -87.576008796999574, 41.783593266405667 ], [ -87.576017971899375, 41.783595603498881 ], [ -87.576025191552404, 41.783601822924943 ], [ -87.576036404352109, 41.783609511763075 ], [ -87.576046003898782, 41.783614825593979 ], [ -87.576059222608549, 41.783624291693393 ], [ -87.576082828839546, 41.783638174006967 ], [ -87.576091661761694, 41.783646768434352 ], [ -87.576103641209286, 41.783651176665394 ] ] } },
{ "type": "Feature", "properties": { "Id": 0, "survey_file": "20220419_63rdSt_Shoreline", "source": "Illinois State Geological Survey / IDNR Coastal Management Program" }, "geometry": { "type": "LineString", "coordinates": [ [ -87.570103093691102, 41.781191822412517 ], [ -87.570224151636722, 41.781199800757321 ], [ -87.570331606606047, 41.781253601959889 ], [ -87.570363857892772, 41.781300150539316 ], [ -87.57042847533927, 41.781334344897388 ], [ -87.570453976958305, 41.781337792917526 ], [ -87.570485782698682, 41.781334060338047 ], [ -87.570525795992552, 41.781358288374463 ], [ -87.570561713448555, 41.781369429707816 ], [ -87.570607846044453, 41.78136562594068 ], [ -87.570652592764162, 41.781385064229653 ], [ -87.570714091153349, 41.781408589703354 ], [ -87.570761141215129, 41.781418484121595 ], [ -87.570805798197696, 41.781427794636521 ], [ -87.5708376990695, 41.781434785420991 ], [ -87.570861677568132, 41.78144598598206 ], [ -87.570886483717658, 41.781460757069944 ], [ -87.570924699265277, 41.781461758709817 ], [ -87.570967016054453, 41.781476442758631 ], [ -87.571011757673048, 41.781495285158378 ], [ -87.571026959768361, 41.781504146209564 ], [ -87.571062850961496, 41.781512308645766 ], [ -87.571105051516483, 41.781513886191028 ], [ -87.57115213343414, 41.781527354935029 ], [ -87.571164188812318, 41.781540402030672 ], [ -87.571194503188849, 41.781547996377412 ], [ -87.571243930663897, 41.781556687228914 ], [ -87.571306214792557, 41.781579016929285 ], [ -87.571358083008178, 41.781593653334973 ], [ -87.571391570609137, 41.781600040299764 ], [ -87.571446606747841, 41.781612873586958 ], [ -87.571495264816321, 41.781624547027675 ], [ -87.571572756592928, 41.781656333316349 ], [ -87.5716317830951, 41.781670338209793 ], [ -87.571703676954641, 41.781699173392965 ], [ -87.571793935723463, 41.781734470642448 ], [ -87.571856177865996, 41.78175203405992 ], [ -87.571901763517715, 41.781776233876776 ], [ -87.571965518196919, 41.781784853094322 ], [ -87.572014213550787, 41.781800696547393 ], [ -87.572035883989258, 41.781820844965026 ], [ -87.572059836362243, 41.781829066534563 ], [ -87.572098858675048, 41.781831255314337 ], [ -87.572140432988959, 41.781851900367251 ], [ -87.572170848253236, 41.781870813660156 ], [ -87.572209939450374, 41.781880747121683 ], [ -87.572254596957734, 41.781890057069397 ], [ -87.572280109485092, 41.781894696177154 ], [ -87.572309585834915, 41.781897528210912 ], [ -87.572330412776296, 41.781912318808075 ], [ -87.572335257301717, 41.781920039736093 ], [ -87.572357692035595, 41.781936609640582 ], [ -87.572411985692199, 41.781955403903353 ], [ -87.572455916222239, 41.78197246245724 ], [ -87.572535706623839, 41.781994108480852 ], [ -87.57258923093714, 41.782015885363847 ], [ -87.572720380654644, 41.782084341417196 ], [ -87.572792296666961, 41.782115558901474 ], [ -87.572864106694794, 41.782134861388549 ], [ -87.57293520567363, 41.782163699760929 ], [ -87.572983859118821, 41.782174776818181 ], [ -87.573013420491336, 41.782187140631052 ], [ -87.573076538914449, 41.782213635624402 ], [ -87.57310681669432, 41.782217059229389 ], [ -87.573135629910368, 41.782234788709005 ], [ -87.573179582043196, 41.782254229973042 ], [ -87.573235510547249, 41.782277781880346 ], [ -87.57340320076473, 41.782337713981732 ], [ -87.573471944213011, 41.78237013842103 ], [ -87.573533513577388, 41.782401407086283 ], [ -87.57360614132925, 41.782423088121462 ], [ -87.57369553715958, 41.782450643116718 ], [ -87.573923328226599, 41.782555553135417 ], [ -87.573972083081685, 41.782577948971351 ], [ -87.57405986081055, 41.782602532896341 ], [ -87.574127076741092, 41.782642113861549 ], [ -87.574255921237395, 41.782719516279997 ], [ -87.574368458859311, 41.782753508583959 ], [ -87.574464520880213, 41.782814392990005 ], [ -87.574525273921822, 41.782843282106427 ], [ -87.574712266541198, 41.782925159390679 ], [ -87.574801897649749, 41.782978926396055 ], [ -87.574845856110684, 41.782998962761042 ], [ -87.574894744661421, 41.783036251881377 ], [ -87.57497397541637, 41.783084113056624 ], [ -87.575035508927613, 41.783111210673411 ], [ -87.57508580326747, 41.783127640588887 ], [ -87.57516103319135, 41.783173138565921 ], [ -87.575260291069071, 41.783235197848008 ], [ -87.57543316090009, 41.783339784074236 ], [ -87.575577174232663, 41.783421875209051 ], [ -87.575766690990818, 41.78351863246467 ], [ -87.575966801093628, 41.783642741892059 ], [ -87.576173968977827, 41.783754900094301 ], [ -87.576191624213465, 41.783770897439389 ] ] } },
{ "type": "Feature", "properties": { "Id": 0, "survey_file": "20230321_63_Shoreline", "source": "Illinois State Geological Survey / IDNR Coastal Management Program" }, "geometry": { "type": "LineString", "coordinates": [ [ -87.576197388953958, 41.783816601278446 ], [ -87.576021022751533, 41.78373017012904 ], [ -87.575829138421128, 41.783635808260136 ], [ -87.575639259233967, 41.783544612914525 ], [ -87.575354600136905, 41.783398360825586 ], [ -87.574958194997592, 41.783194131122322 ], [ -87.574667560797607, 41.78304278226269 ], [ -87.574300955786143, 41.782837203278589 ], [ -87.573994005153992, 41.782693752305505 ], [ -87.573570985468621, 41.782493064387872 ], [ -87.57317641290291, 41.78233119708208 ], [ -87.572734693707957, 41.782159799921608 ], [ -87.572402369121519, 41.782048635017375 ], [ -87.571987415765747, 41.781902852505702 ], [ -87.571628411228843, 41.781789881689498 ], [ -87.571192649649959, 41.781659745843072 ], [ -87.57082654304736, 41.781567920138578 ], [ -87.570535920827666, 41.781489300916796 ], [ -87.570209111449614, 41.781418498475389 ], [ -87.570022377589382, 41.781394867757612 ], [ -87.569804698460459, 41.781404787854555 ], [ -87.569584665290463, 41.781402996466817 ], [ -87.569487293363395, 41.781401173677345 ], [ -87.569333536320954, 41.781399332744513 ] ] } },
{ "type": "Feature", "properties": { "Id": 0, "survey_file": "20240408_63rdSt_Shoreline", "source": "Illinois State Geological Survey / IDNR Coastal Management Program" }, "geometry": { "type": "LineString", "coordinates": [ [ -87.569385377367752, 41.781371294319804 ], [ -87.569407619741995, 41.781378114017443 ], [ -87.569429240057346, 41.78138002808889 ], [ -87.569442576800284, 41.781383138204895 ], [ -87.569459760903783, 41.781385074259305 ], [ -87.569468842817244, 41.781386906099449 ], [ -87.569481188344014, 41.781386989277024 ], [ -87.569496655700718, 41.781391099441038 ], [ -87.569512101342752, 41.781392755358034 ], [ -87.569538377587577, 41.781397678175409 ], [ -87.569558268390509, 41.781400322665 ], [ -87.569568117991864, 41.78140171757029 ], [ -87.569576451391555, 41.781406151839086 ], [ -87.569587057178637, 41.781405810509547 ], [ -87.569606369349088, 41.781408457859612 ], [ -87.569632626441546, 41.781411215145184 ], [ -87.569650017492251, 41.781414738255478 ], [ -87.569661411407353, 41.781416269868998 ], [ -87.569671054078469, 41.781416077681058 ], [ -87.569680885795023, 41.781415451433851 ], [ -87.569684938809175, 41.781415720083295 ], [ -87.569689421028073, 41.781420895309346 ], [ -87.569720549942659, 41.781429258989689 ], [ -87.56976537199904, 41.781437410377947 ], [ -87.569787972076256, 41.781441052006855 ], [ -87.569802086755487, 41.781444880091122 ], [ -87.569829298040744, 41.781446477609634 ], [ -87.569851521313964, 41.781451131710725 ], [ -87.569860411646715, 41.781453108843827 ], [ -87.569874684698789, 41.781453038044297 ], [ -87.569882974664452, 41.781452563801203 ], [ -87.569899803720531, 41.781457966519206 ], [ -87.569912909272205, 41.781456746517051 ], [ -87.569925836006448, 41.781457115510925 ], [ -87.569943247539825, 41.781462948453992 ], [ -87.569964676297857, 41.781465007748579 ], [ -87.569989008472191, 41.781468207623554 ], [ -87.570005243560999, 41.781471880788871 ], [ -87.570017004073804, 41.781471244943035 ], [ -87.570033409028909, 41.781472318535378 ], [ -87.570044059576546, 41.78147703002022 ], [ -87.570059661049953, 41.781474498253701 ], [ -87.570072636379322, 41.781480353189643 ], [ -87.570085554167875, 41.781479711594216 ], [ -87.570090570304629, 41.781479831076382 ], [ -87.570100269249494, 41.781485991014918 ], [ -87.570115129897417, 41.781486927885339 ], [ -87.570122242129315, 41.781484149490694 ], [ -87.570133249030235, 41.781485538604286 ], [ -87.5701435176655, 41.781490685096216 ], [ -87.570155282016898, 41.781490482338199 ], [ -87.570168604748773, 41.781492004328889 ], [ -87.570176945874763, 41.781497304757693 ], [ -87.570191199751221, 41.781495068408859 ], [ -87.570199125704207, 41.7814970503021 ], [ -87.570208431229432, 41.781502345942044 ], [ -87.570218652548959, 41.781502150836104 ], [ -87.57022944099451, 41.781500653551248 ], [ -87.570240255021247, 41.781502043611908 ], [ -87.570248013679389, 41.781506913805636 ], [ -87.570271962682838, 41.781510404269909 ], [ -87.57029418728844, 41.781515202652301 ], [ -87.570306147081396, 41.781515287655992 ], [ -87.570319489010743, 41.781518975138972 ], [ -87.570333184717796, 41.781519051522245 ], [ -87.57033895574402, 41.781517290388223 ], [ -87.570349974169062, 41.781519978786868 ], [ -87.570361208502732, 41.781525264838692 ], [ -87.5703747023761, 41.781524331603329 ], [ -87.570388062223017, 41.781530040220808 ], [ -87.570398491778803, 41.781531576549085 ], [ -87.570412163178545, 41.781528909943816 ], [ -87.570425903670298, 41.781534039172243 ], [ -87.570436546579344, 41.781537884416487 ], [ -87.570450667715349, 41.781542434257247 ], [ -87.570465530940098, 41.781543659816862 ], [ -87.570471128279578, 41.781544065143748 ], [ -87.570476714102568, 41.781543171164515 ], [ -87.570480785042562, 41.781545460928271 ], [ -87.570484468944514, 41.781547608240132 ], [ -87.57051440107449, 41.781551502064026 ], [ -87.570545305283474, 41.78155625729454 ], [ -87.570575248939534, 41.781561450408375 ], [ -87.570605399558715, 41.781568230596868 ], [ -87.570620638311411, 41.781568299281858 ], [ -87.570640323530256, 41.781569500868265 ], [ -87.570648660864819, 41.781574368160499 ], [ -87.570658693154655, 41.781574607075356 ], [ -87.570672385033333, 41.781574250316183 ], [ -87.570690895056927, 41.781573436500118 ], [ -87.570698605113051, 41.781572820705208 ], [ -87.570713283150667, 41.781574913394721 ], [ -87.570725056476249, 41.781575721149466 ], [ -87.570728391754486, 41.781582057021865 ], [ -87.570739230129135, 41.781586190014316 ], [ -87.570765119504642, 41.781590970098975 ], [ -87.570776675628736, 41.781589035827771 ], [ -87.570793706635968, 41.781595448026891 ], [ -87.570802796298082, 41.781598145964942 ], [ -87.57081322203328, 41.781599249153487 ], [ -87.570820550173437, 41.78159906836899 ], [ -87.570832563759652, 41.781605216744765 ], [ -87.570848757955346, 41.781604270036404 ], [ -87.570855534347331, 41.781607123838363 ], [ -87.570862512582821, 41.781610987252613 ], [ -87.570875439352307, 41.781611356139429 ], [ -87.570886437326692, 41.781611734609427 ], [ -87.570897616655643, 41.781610812814137 ], [ -87.570926765795065, 41.78161341105838 ], [ -87.570934857770638, 41.781612360228621 ], [ -87.570942608810213, 41.781616364171114 ], [ -87.570956689016271, 41.781616294195487 ], [ -87.570960001266684, 41.781620031449478 ], [ -87.570965403174682, 41.781620148976209 ], [ -87.570968696214933, 41.781621720720374 ], [ -87.570978154997377, 41.781622539952295 ], [ -87.570993441151643, 41.781627950178034 ], [ -87.571004914545028, 41.781638432430633 ], [ -87.571018077748704, 41.781643708830984 ], [ -87.571033924617993, 41.781647095032959 ], [ -87.571036451266281, 41.781649248079198 ], [ -87.571044748933076, 41.781649639956008 ], [ -87.57105673436962, 41.781652612227433 ], [ -87.571061949805497, 41.781653452544852 ], [ -87.571064666772742, 41.781655315897119 ], [ -87.571068718526291, 41.781655440130301 ], [ -87.571090152506159, 41.781658076683463 ], [ -87.571101389486088, 41.78166365139684 ], [ -87.571113380051983, 41.781667201131519 ], [ -87.571127294291784, 41.781670163807064 ], [ -87.571143128362024, 41.781672106320869 ], [ -87.571158004440434, 41.7816747754636 ], [ -87.571165535717014, 41.781675748636523 ], [ -87.57117093250524, 41.781675288684355 ], [ -87.571184068824465, 41.781677533352266 ], [ -87.571194871369485, 41.781677624017036 ], [ -87.571203363201732, 41.781678159290649 ], [ -87.571208221069938, 41.781682177599933 ], [ -87.571218491102911, 41.781687468362179 ], [ -87.571234730159375, 41.781691574454733 ], [ -87.571256569137873, 41.781696374568057 ], [ -87.57127009250523, 41.781698761675194 ], [ -87.571278585622267, 41.781699441310536 ], [ -87.57129210642816, 41.781701539680483 ], [ -87.571299860063434, 41.781705832333195 ], [ -87.571306438480107, 41.781708109598284 ], [ -87.571315901123768, 41.781709361904156 ], [ -87.571324767186994, 41.781708595944764 ], [ -87.571335952933765, 41.781708395943234 ], [ -87.571364734316901, 41.781713017136454 ], [ -87.571396844646983, 41.781723252338359 ], [ -87.571419249470154, 41.781726605869693 ], [ -87.571431802041559, 41.781728275918063 ], [ -87.5714486351429, 41.781734111509522 ], [ -87.571457324991698, 41.781735223274062 ], [ -87.57147242986926, 41.781741933700552 ], [ -87.57147922168555, 41.781746519872833 ], [ -87.571492235395752, 41.781743642737723 ], [ -87.571503112338988, 41.781745159415202 ], [ -87.571511900594714, 41.781747795271976 ], [ -87.571520796705556, 41.781748675007762 ], [ -87.571533428930124, 41.781753232122043 ], [ -87.571553313123701, 41.781754241988764 ], [ -87.571565358495207, 41.781762220787542 ], [ -87.571584134165093, 41.781763513361433 ], [ -87.57159936198606, 41.781768427151093 ], [ -87.571606200595951, 41.781773937074476 ], [ -87.571618693796822, 41.781776739287317 ], [ -87.571627983219841, 41.781780204233868 ], [ -87.571649867954335, 41.781784068503256 ], [ -87.571657567390091, 41.781789204543614 ], [ -87.571667940723813, 41.781789614921642 ], [ -87.571681932483571, 41.781794350052721 ], [ -87.57169246126908, 41.78179836322164 ], [ -87.571700718834336, 41.781796843743273 ], [ -87.571707933530732, 41.781802998583032 ], [ -87.571717713452301, 41.78180609148481 ], [ -87.571728604364111, 41.78180917885684 ], [ -87.571729743259311, 41.781812314759947 ], [ -87.571739135617236, 41.781813469206604 ], [ -87.571746174345606, 41.781813711374447 ], [ -87.571758559712137, 41.781818269692437 ], [ -87.571766371112489, 41.781822111580198 ], [ -87.571788513426853, 41.781827175730029 ], [ -87.571794083150223, 41.781828811193463 ], [ -87.571796337142928, 41.781832403541607 ], [ -87.571798075199425, 41.781833503680744 ], [ -87.571800788489455, 41.781833212978746 ], [ -87.571808570342597, 41.781833728641509 ], [ -87.571820327008297, 41.781836996494008 ], [ -87.571823183443172, 41.781838922658459 ], [ -87.571831230243774, 41.781841469782101 ], [ -87.571844603989106, 41.781846115570289 ], [ -87.571865396650651, 41.781852110414711 ], [ -87.571888059027998, 41.78186012872915 ], [ -87.57192542759222, 41.781869921811307 ], [ -87.571952810390769, 41.781881242982379 ], [ -87.571961723768766, 41.781884062979984 ], [ -87.571968877737859, 41.781883380569006 ], [ -87.571984583788236, 41.781886536342775 ], [ -87.572001801543692, 41.781893103355976 ], [ -87.572026191338992, 41.78190102064319 ], [ -87.572036563050318, 41.781901246197691 ], [ -87.572045943108193, 41.781901014693339 ], [ -87.572053265689235, 41.781905413390355 ], [ -87.572060338920664, 41.781909536131081 ], [ -87.572068259832136, 41.781911806667487 ], [ -87.572079626484268, 41.781912858856053 ], [ -87.572098550289809, 41.781916922582347 ], [ -87.572112177527259, 41.781922306270083 ], [ -87.572118874684605, 41.781925784086035 ], [ -87.572137561465624, 41.78193095777597 ], [ -87.572145363867094, 41.781933783292089 ], [ -87.572150922109401, 41.78193412520735 ], [ -87.572161960326952, 41.781939891379672 ], [ -87.57217966696011, 41.781945901536474 ], [ -87.572188191133534, 41.781946598274637 ], [ -87.572209865214163, 41.781954529048527 ], [ -87.572234891991414, 41.781964660697987 ], [ -87.572252967325724, 41.781970484208685 ], [ -87.572265979012528, 41.781976055742525 ], [ -87.572275615004457, 41.781976839335073 ], [ -87.572278104414607, 41.781979136912966 ], [ -87.572282697295051, 41.781981978407451 ], [ -87.572287282781787, 41.781983988346319 ], [ -87.57229234068221, 41.781983593554038 ], [ -87.572295066299873, 41.781984688766066 ], [ -87.572296689141183, 41.781986713462963 ], [ -87.572298435426177, 41.781988737544886 ], [ -87.572304117939169, 41.781989171232816 ], [ -87.572309674543831, 41.781989328350257 ], [ -87.572313282342449, 41.781992451948241 ], [ -87.572326787813296, 41.781998021015298 ], [ -87.572331495102887, 41.781999845547304 ], [ -87.572339648954156, 41.782000544119093 ], [ -87.572346214471693, 41.782003098586124 ], [ -87.572356373001384, 41.782007113538548 ], [ -87.572365896237201, 41.782009098874099 ], [ -87.572371735063598, 41.782013227745502 ], [ -87.572384360825851, 41.782017045604945 ], [ -87.572401318621473, 41.782022135466974 ], [ -87.572416301321212, 41.782027235167547 ], [ -87.572428939415374, 41.782032438947724 ], [ -87.572446393458634, 41.782037803527857 ], [ -87.572461845285716, 41.782040128910694 ], [ -87.5724719124362, 41.782047747874635 ], [ -87.572479326454612, 41.782048542522247 ], [ -87.572493593160303, 41.782056417754745 ], [ -87.572512758167733, 41.782059833416696 ], [ -87.572541512181317, 41.782072625999703 ], [ -87.572560568547587, 41.782077705379578 ], [ -87.572598213818523, 41.782090823232153 ], [ -87.572618898803142, 41.782098574060043 ], [ -87.572636254098256, 41.78210671107756 ], [ -87.572657789223513, 41.782112886875552 ], [ -87.572682935465181, 41.782122555835798 ], [ -87.572706824254965, 41.782129643883181 ], [ -87.572720688609138, 41.7821339175267 ], [ -87.572725912716777, 41.782138326641885 ], [ -87.572734818763763, 41.782140315023611 ], [ -87.572740253582879, 41.782140657525623 ], [ -87.572741021379457, 41.782143702869398 ], [ -87.572739940806784, 41.782147127024544 ], [ -87.57274147228901, 41.782152755736874 ], [ -87.572745066962028, 41.782154401000405 ], [ -87.572749111010111, 41.782151054470113 ], [ -87.572754136853163, 41.782147056250956 ], [ -87.572757962791243, 41.782146944777523 ], [ -87.572761434842704, 41.782148683051034 ], [ -87.572767994636067, 41.782150590728428 ], [ -87.572771333376906, 41.782151220876621 ], [ -87.572773989013413, 41.782158322370059 ], [ -87.572778212418953, 41.782161258085807 ], [ -87.572785485742074, 41.782160113033221 ], [ -87.572789672967346, 41.782158983366926 ], [ -87.572801058587302, 41.78216216056957 ], [ -87.572811490372359, 41.782169130891511 ], [ -87.572813723053216, 41.782170320948097 ], [ -87.572828179149965, 41.782171727254926 ], [ -87.572834764440742, 41.782176499174604 ], [ -87.572843539651018, 41.782177656608013 ], [ -87.572857529113179, 41.782182114409416 ], [ -87.572872515175433, 41.782187583630026 ], [ -87.572890112479627, 41.782195165007387 ], [ -87.572915358380143, 41.782202153844636 ], [ -87.572922915605162, 41.782205165328669 ], [ -87.572932433952317, 41.782206596246688 ], [ -87.572945175826533, 41.782209581872984 ], [ -87.572956322800295, 41.782213684241718 ], [ -87.572969572436449, 41.782218238118269 ], [ -87.572991133130543, 41.782227278099235 ], [ -87.573008984750984, 41.782235689782098 ], [ -87.573027679095929, 41.78224169488125 ], [ -87.573043403382755, 41.782246883199903 ], [ -87.5730520773743, 41.782250535898875 ], [ -87.573060130855708, 41.782253822095875 ], [ -87.573087123114547, 41.782262834965053 ], [ -87.573098287383985, 41.782268877615486 ], [ -87.57310682148244, 41.782270683025494 ], [ -87.573111821776564, 41.782277680415241 ], [ -87.57311911567588, 41.782278845217256 ], [ -87.573133558638631, 41.782278773164954 ], [ -87.573144675192395, 41.782279456899111 ], [ -87.573152522111897, 41.78228727167771 ], [ -87.573162809117278, 41.782291840312325 ], [ -87.573174460592668, 41.782297141331533 ], [ -87.573183614386352, 41.782299220841459 ], [ -87.573189078021528, 41.782302797148112 ], [ -87.573191069585718, 41.782304635194279 ], [ -87.573204317611186, 41.782309004253406 ], [ -87.57322600592714, 41.782318505548986 ], [ -87.573245231948718, 41.782328758319856 ], [ -87.573260738189759, 41.782337181666286 ], [ -87.573269413028683, 41.782340926743672 ], [ -87.573279038387554, 41.782340509116253 ], [ -87.573289202789098, 41.782345170750425 ], [ -87.573300822186184, 41.782346868350643 ], [ -87.573305553396722, 41.782351372298052 ], [ -87.573321145234473, 41.782355544849004 ], [ -87.573332088991748, 41.78236454534926 ], [ -87.573351142213227, 41.782369255016711 ], [ -87.573363782095541, 41.782374643482875 ], [ -87.573378392150147, 41.782379467719871 ], [ -87.573380900547548, 41.782383890358922 ], [ -87.573410350267324, 41.78239159729884 ], [ -87.573424867343718, 41.782399840761848 ], [ -87.573427604523062, 41.782402229477029 ], [ -87.573435652279827, 41.782404868882217 ], [ -87.573439521039916, 41.782409561927167 ], [ -87.573456232955522, 41.782414745259324 ], [ -87.573470220041159, 41.782418925800286 ], [ -87.573486566568235, 41.782424665346724 ], [ -87.573516433582952, 41.782437636926737 ], [ -87.573537521233177, 41.782448989144399 ], [ -87.573561915542257, 41.782457368077402 ], [ -87.573581143305319, 41.782467805581248 ], [ -87.573610488582574, 41.782477638171102 ], [ -87.573621037362528, 41.782483868641776 ], [ -87.573642321700149, 41.782489583511065 ], [ -87.573654361702026, 41.782496915322191 ], [ -87.573671996242609, 41.782508654354032 ], [ -87.573690154946092, 41.782509949664025 ], [ -87.573703916592265, 41.782516533679534 ], [ -87.57371965912003, 41.782523754594969 ], [ -87.573740234934959, 41.782533076550394 ], [ -87.573748931243628, 41.782539223861505 ], [ -87.573757953408318, 41.78254037999158 ], [ -87.573782138782619, 41.782553010281006 ], [ -87.5738005921678, 41.782559663251192 ], [ -87.573808422725619, 41.782565630083596 ], [ -87.573830319387184, 41.782570787464792 ], [ -87.573841884594572, 41.782580246807576 ], [ -87.57385411056174, 41.782580740133206 ], [ -87.573870732064265, 41.782589619821564 ], [ -87.573874715249389, 41.782593295889669 ], [ -87.573892423043873, 41.782599398174696 ], [ -87.573900728444258, 41.782603237448768 ], [ -87.573913632609901, 41.782610564915558 ], [ -87.573928645226673, 41.782618990637175 ], [ -87.573937172802616, 41.782620056824854 ], [ -87.57394798418234, 41.782628041536789 ], [ -87.573979099015816, 41.782642485147854 ], [ -87.573989863434761, 41.782645203340202 ], [ -87.574003496751146, 41.782651233566 ], [ -87.574024693992172, 41.782661014360912 ], [ -87.574036503661688, 41.782670195265062 ], [ -87.574045280608189, 41.782671537396041 ], [ -87.574055199051429, 41.78267629259016 ], [ -87.574064142299179, 41.782682438643278 ], [ -87.574070450350263, 41.782683793109179 ], [ -87.574077897426918, 41.782688283453275 ], [ -87.574100747278266, 41.782703415125169 ], [ -87.57411572532412, 41.782707960231612 ], [ -87.574130344576531, 41.782713800716934 ], [ -87.574144486536881, 41.782721491568218 ], [ -87.57416878231092, 41.7827326428379 ], [ -87.57418178937013, 41.782737659781972 ], [ -87.574191741630798, 41.782746203159327 ], [ -87.574201781068282, 41.782750680538577 ], [ -87.574206881057819, 41.782754997806983 ], [ -87.574217137710804, 41.78275614773073 ], [ -87.574222971777004, 41.782759722136312 ], [ -87.574232240046442, 41.782760784599823 ], [ -87.574238585206217, 41.782766296831582 ], [ -87.574245314717075, 41.782773377926908 ], [ -87.574266253602602, 41.782781866380574 ], [ -87.574274547506434, 41.782784412097186 ], [ -87.57428842776892, 41.782790441054537 ], [ -87.574308544599049, 41.782803645965146 ], [ -87.574330624191674, 41.782815455072992 ], [ -87.574342860101211, 41.782817057086312 ], [ -87.574365794750449, 41.782827845522291 ], [ -87.574367695902396, 41.782833379964757 ], [ -87.574386319875444, 41.782845298737513 ], [ -87.574396823436246, 41.782846447410712 ], [ -87.574400544933624, 41.782848461584543 ], [ -87.574407100722908, 41.782849907192343 ], [ -87.574416041554329, 41.782855776032527 ], [ -87.574428054498455, 41.782860058726136 ], [ -87.574438494818835, 41.782867952847646 ], [ -87.574447678422615, 41.782873358475833 ], [ -87.574455853848306, 41.782876459166438 ], [ -87.574462648285007, 41.782876979586526 ], [ -87.574467256170436, 41.782881484102198 ], [ -87.574477549136446, 41.782886699382409 ], [ -87.574493283593213, 41.782892996240264 ], [ -87.574507426460841, 41.782900779441093 ], [ -87.574527507903397, 41.782910011327736 ], [ -87.574538340850296, 41.782920398252855 ], [ -87.57455218074918, 41.782921899823044 ], [ -87.574560126617342, 41.7829269420358 ], [ -87.574569416362777, 41.782930406741777 ], [ -87.57457413698144, 41.782933709500696 ], [ -87.574601883605425, 41.782944196625323 ], [ -87.574605255401792, 41.782948522519568 ], [ -87.574615884078398, 41.782949855345151 ], [ -87.57463323985337, 41.782957992056723 ], [ -87.574650254171047, 41.782969364442884 ], [ -87.57468284654604, 41.782983338475745 ], [ -87.574695006903482, 41.782990299978351 ], [ -87.574707998378983, 41.782993561357166 ], [ -87.574709253460441, 41.782995865056591 ], [ -87.574714445595788, 41.782996670674656 ], [ -87.574719548114402, 41.783001265104772 ], [ -87.57473042204272, 41.783002411894579 ], [ -87.574738628027546, 41.783008931179488 ], [ -87.574758450268561, 41.783016778335423 ], [ -87.574773456488714, 41.783024464784816 ], [ -87.574793691985491, 41.78303711462128 ], [ -87.574817011978936, 41.783049564222715 ], [ -87.574841725369296, 41.783065980009383 ], [ -87.574862296566948, 41.783074747390913 ], [ -87.574873590365641, 41.783081436013255 ], [ -87.574892073725991, 41.783091415025417 ], [ -87.574912161885692, 41.783101386003672 ], [ -87.5749260455773, 41.783107784462793 ], [ -87.574930788512873, 41.783113581871426 ], [ -87.574939933398682, 41.783114644895164 ], [ -87.574956089469822, 41.783126668324542 ], [ -87.574970456223227, 41.783131863172159 ], [ -87.574985977740667, 41.783141949391634 ], [ -87.575005295537949, 41.783148597840913 ], [ -87.575012508224489, 41.783154475283787 ], [ -87.575019209793268, 41.783158414903035 ], [ -87.575030750514443, 41.783165102273891 ], [ -87.575035570678864, 41.783165724941036 ], [ -87.575039555617209, 41.783169585757705 ], [ -87.575041076593351, 41.783174013302165 ], [ -87.575044056629324, 41.783175938767208 ], [ -87.575052949680725, 41.783176448647765 ], [ -87.575067103410632, 41.783185432913285 ], [ -87.575090031706608, 41.783195482042551 ], [ -87.575117093170974, 41.783212163212575 ], [ -87.57513623264343, 41.783226481659 ], [ -87.575168074668795, 41.783239350520333 ], [ -87.575171645517429, 41.783238316252408 ], [ -87.57517648715816, 41.783241341183093 ], [ -87.575189906850014, 41.783251068301318 ], [ -87.575221675001202, 41.783269481464437 ], [ -87.57525120132162, 41.783285688265437 ], [ -87.575280738393587, 41.7833030961934 ], [ -87.57531833416671, 41.783324344520018 ], [ -87.575338810974742, 41.783336346257293 ], [ -87.575348727963302, 41.783340916547999 ], [ -87.575359532204629, 41.783348069569435 ], [ -87.575371794673046, 41.783352628111437 ], [ -87.575372680272963, 41.783355026053002 ], [ -87.575377125160088, 41.783355096190604 ], [ -87.575380395061217, 41.783361824948948 ], [ -87.575382641047455, 41.783364493274433 ], [ -87.575387092543707, 41.783365302571454 ], [ -87.575391670790495, 41.783366480829912 ], [ -87.575396994670868, 41.783368209748332 ], [ -87.575414126068921, 41.783378842240921 ], [ -87.575430758731088, 41.783388922834334 ], [ -87.575440195993664, 41.783395066304848 ], [ -87.575443335848092, 41.783401056519843 ], [ -87.575455745737287, 41.783408293888655 ], [ -87.575487363330851, 41.783423658561091 ], [ -87.575514544308859, 41.783439877042333 ], [ -87.575531558909177, 41.783451249295204 ], [ -87.575549136211919, 41.783456520385165 ], [ -87.575551877646404, 41.783459371023376 ], [ -87.575561811195172, 41.783465789194778 ], [ -87.575580042921288, 41.783475214961314 ], [ -87.57559179676953, 41.783478112843952 ], [ -87.575599135471961, 41.783484266815528 ], [ -87.575606950607479, 41.783488478018185 ], [ -87.57560895715217, 41.783491979130851 ], [ -87.575615502290489, 41.783492223534353 ], [ -87.575619742440594, 41.783497007043003 ], [ -87.575624088683327, 41.783499849638595 ], [ -87.575633998279457, 41.783503588349504 ], [ -87.575642419908178, 41.783506595322422 ], [ -87.575650123999381, 41.783512193065192 ], [ -87.57566079411248, 41.78351814554167 ], [ -87.575680158374581, 41.783529967994092 ], [ -87.575694550070907, 41.783537934598904 ], [ -87.575720090803216, 41.783550188088824 ], [ -87.575746532866987, 41.78356659501587 ], [ -87.575766852494112, 41.783574809100394 ], [ -87.575771846566141, 41.783581067210591 ], [ -87.575786471125525, 41.783587461851873 ], [ -87.575795416318002, 41.783593792557333 ], [ -87.575812793081553, 41.7836042389619 ], [ -87.575873326873889, 41.783636552426053 ], [ -87.57590769771258, 41.783656061140555 ], [ -87.575938213609845, 41.783672447600892 ], [ -87.575965244898612, 41.783685709953531 ], [ -87.575993151903106, 41.783700261496662 ], [ -87.576011652980071, 41.783712180619574 ], [ -87.576044797702508, 41.783732619431355 ], [ -87.576065182756025, 41.783748132664044 ], [ -87.576119454100564, 41.783784173363522 ], [ -87.576166885265593, 41.783828379463621 ], [ -87.576207288469774, 41.783859777317979 ] ] } }
]
}
