{
"type": "FeatureCollection",
"name": "Jackson_Park_19_existing",
"crs": { "type": "name", "properties": { "name": "urn:ogc:def:crs:OGC:1.3:CRS84" } },
"features": [
{ "type": "Feature", "properties": { "pool_outdo": "0", "golf_cours": "1", "baseball_b": "0", "wheelchr_a": "0", "acres": "551.52", "bocce_cour": "0", "sled_hill": "0", "artificial": "1", "shape_area": "23110298.3329", "location": "6401 S STONY ISLAND AVE", "tennis_cou": "24", "perimeter": "48439.4850561", "zip": "60637", "gymnasium": "1", "horseshoe_": "0", "objectid_1": "18", "boat_lau_1": "1", "harbor": "3", "nature_bir": "4", "spray_feat": "1", "game_table": "0", "golf_drivi": "1", "fitness_co": "0", "cricket_fi": "0", "boat_slips": "467", "track": "1", "boxing_cen": "0", "golf_putti": "0", "label": "Jackson (Andrew)", "handball_r": "0", "community_": "1", "modeltrain": "0", "mountain_b": "0", "carousel": "0", "senior_cen": "0", "fitness_ce": "1", "lagoon": "2", "football_s": "5", "garden": "2", "baseball_j": "6", "wetland_ar": "0", "archery_ra": "0", "gallery": "0", "shape_leng": "49754.537972", "conservato": "0", "rowing_clu": "0", "gymnastic_": "1", "playground": "7", "ward": "5.0", "handball_i": "0", "basketball": "8", "shuffleboa": "0", "band_shell": "0", "cultural_c": "0", "croquet": "1", "bowling_gr": "2", "playgrou_1": "0", "water_slid": "0", "gisobjid": "548.0", "park": "JACKSON (ANDREW)", "nature_cen": "0", "modelyacht": "0", "pool_indoo": "0", "skate_park": "0", "casting_pi": "1", "sport_roll": "0", "baseball_s": "2", "water_play": "1", "dog_friend": "0", "basketba_1": "4", "park_class": "MAGNET PARK", "volleyba_1": "0", "iceskating": "0", "park_no": "19.0", "climbing_w": "0", "boat_launc": "1", "beach": "2", "volleyball": "0", "zoo": "0", "minigolf": "0", "source": "City of Chicago Data Portal / Chicago Park District", "source_vintage": "Current boundaries as of 2016-11-04 (portal metadata)", "calc_acres_epsg3435": 530.53944749632626, "calc_perim_ft_epsg3435": 49754.537972014397 }, "geometry": { "type": "MultiPolygon", "coordinates": [ [ [ [ -87.57714757686901, 41.788167819516012 ], [ -87.577147918704256, 41.78813873224771 ], [ -87.577153407549403, 41.788108581328409 ], [ -87.577222421791319, 41.788101900288765 ], [ -87.57727466764662, 41.788086876017935 ], [ -87.577277890578586, 41.788062198733968 ], [ -87.57727802210502, 41.787988652428453 ], [ -87.577293244115637, 41.78787898151613 ], [ -87.577311109837964, 41.787794026494574 ], [ -87.577322484680494, 41.787699698389702 ], [ -87.577331262066579, 41.787576811982547 ], [ -87.577335550061179, 41.787461580545525 ], [ -87.577338583259674, 41.78732822843623 ], [ -87.577339403416715, 41.787195959291267 ], [ -87.577333476086352, 41.787076269596945 ], [ -87.577322635191763, 41.786937885934947 ], [ -87.577311581553971, 41.786817613282558 ], [ -87.577271776641751, 41.786647755305438 ], [ -87.577242847554231, 41.786488395886821 ], [ -87.577197929595727, 41.78631685747601 ], [ -87.577145613336555, 41.786150758000204 ], [ -87.577144597305576, 41.786147542451538 ], [ -87.577065037488438, 41.785965766713076 ], [ -87.577045252106672, 41.785889500746926 ], [ -87.576960620978937, 41.785652469243487 ], [ -87.576870816320053, 41.785426604904366 ], [ -87.576789788614619, 41.785169474977664 ], [ -87.576667449219755, 41.784930154695267 ], [ -87.576539943750362, 41.784639812298046 ], [ -87.576304888268524, 41.784454473432241 ], [ -87.576083774119965, 41.784308683992514 ], [ -87.576034614268906, 41.784247855249028 ], [ -87.575939134160819, 41.784181975342186 ], [ -87.57570297850495, 41.784030599239969 ], [ -87.575563019779111, 41.783925208055066 ], [ -87.575391071695762, 41.783811331394062 ], [ -87.575132752549891, 41.783654911759477 ], [ -87.574737883274366, 41.783428467951097 ], [ -87.574303870289882, 41.783161076257876 ], [ -87.573778251687997, 41.782889631631839 ], [ -87.573196418559974, 41.782619136172528 ], [ -87.572786082171135, 41.782443172395233 ], [ -87.572335274840867, 41.782274625392489 ], [ -87.572138908057127, 41.782207128602579 ], [ -87.572015358633777, 41.782150122399422 ], [ -87.571770294900759, 41.782076642626606 ], [ -87.571238425694858, 41.781918615670016 ], [ -87.571033110937037, 41.781876963522713 ], [ -87.570737497623156, 41.781812179364898 ], [ -87.570375928512433, 41.781749717821022 ], [ -87.569867225679857, 41.781673359143461 ], [ -87.569585409929559, 41.781626976921032 ], [ -87.56917610289544, 41.781600827836158 ], [ -87.568752216637435, 41.78160488528647 ], [ -87.568534038906591, 41.781667746218474 ], [ -87.568477987420437, 41.781804271008092 ], [ -87.568446260866054, 41.781919039504849 ], [ -87.568399453926219, 41.781959670556141 ], [ -87.568322950945529, 41.781954942076531 ], [ -87.567649239448812, 41.784622472850778 ], [ -87.567530530477015, 41.784609713181105 ], [ -87.567962470888986, 41.782899221915898 ], [ -87.568281517934167, 41.781566662123211 ], [ -87.570684158399231, 41.780992353404891 ], [ -87.571020737162939, 41.780929382751665 ], [ -87.572980713009798, 41.780292147436654 ], [ -87.573036422028011, 41.780141329502641 ], [ -87.572934771173735, 41.779875336637588 ], [ -87.572958696405649, 41.779836430409929 ], [ -87.573032493889414, 41.779806883003552 ], [ -87.572711717776485, 41.77931501802415 ], [ -87.572641276760976, 41.779324509543407 ], [ -87.572544041623331, 41.779331488962981 ], [ -87.572427448733265, 41.77932728373321 ], [ -87.572360461072535, 41.779321005732065 ], [ -87.572279614082035, 41.779293464940032 ], [ -87.572232966410851, 41.779258332888773 ], [ -87.572149581157817, 41.779203665509669 ], [ -87.572108263888339, 41.779151310726775 ], [ -87.572053583306158, 41.77909912937924 ], [ -87.572029572630015, 41.779060828541496 ], [ -87.57196248625911, 41.778958793330254 ], [ -87.57195000568943, 41.77891464095368 ], [ -87.571918168825249, 41.778859304832103 ], [ -87.571881166191105, 41.778828335876128 ], [ -87.571832543829231, 41.778790370660879 ], [ -87.571818187771854, 41.77874767251506 ], [ -87.57177268891418, 41.778679648026959 ], [ -87.571670866392324, 41.778570898912811 ], [ -87.571592878873489, 41.77850186573739 ], [ -87.571489411763224, 41.778404573374374 ], [ -87.571417086238824, 41.778332608255532 ], [ -87.571331793679462, 41.778277964542369 ], [ -87.571265163677836, 41.778204495696919 ], [ -87.571152018367016, 41.778101610647916 ], [ -87.571018192537196, 41.777992879110506 ], [ -87.570846431141888, 41.777852555188502 ], [ -87.570554718121457, 41.777631342668442 ], [ -87.57023622189287, 41.777395883455817 ], [ -87.570038616855427, 41.777274078919532 ], [ -87.569890000409188, 41.777192080164973 ], [ -87.569686598540585, 41.777081371188324 ], [ -87.569522605481936, 41.777009161945301 ], [ -87.569300251004833, 41.776890536402334 ], [ -87.569203309492963, 41.77682746463767 ], [ -87.569059492796441, 41.776719257685315 ], [ -87.568904452904306, 41.776621201205323 ], [ -87.568740721516875, 41.776477514300929 ], [ -87.568587031274689, 41.776355138779785 ], [ -87.568529032711311, 41.776289175326028 ], [ -87.568461516417571, 41.776212386531768 ], [ -87.56840891449464, 41.776167323773983 ], [ -87.568283498589594, 41.776028858577547 ], [ -87.568201838126697, 41.775922203394636 ], [ -87.567986094583546, 41.775647358193233 ], [ -87.567651319561236, 41.775197935458067 ], [ -87.567425082628603, 41.774910678971153 ], [ -87.567283013871545, 41.774712389177452 ], [ -87.56717477083285, 41.774577116467739 ], [ -87.567058853280471, 41.774432252300464 ], [ -87.566964020960484, 41.774338290702985 ], [ -87.566791117189851, 41.774166972714028 ], [ -87.566668706288795, 41.774075638663881 ], [ -87.56651571703128, 41.773983271158215 ], [ -87.566376915762987, 41.773926456861545 ], [ -87.566322146884588, 41.773874570182613 ], [ -87.566257828936301, 41.773813637773998 ], [ -87.566188017808315, 41.773767366949713 ], [ -87.566129823794157, 41.773728093794425 ], [ -87.566113332754, 41.773675416416324 ], [ -87.566110002306544, 41.773581155776554 ], [ -87.566170895918177, 41.773530031479332 ], [ -87.566231790283666, 41.773488223131778 ], [ -87.566294949824027, 41.773470804297304 ], [ -87.566310303956968, 41.773455576457813 ], [ -87.566356188945889, 41.773407820024481 ], [ -87.566394280567835, 41.773375871307259 ], [ -87.566454129262226, 41.773341348738747 ], [ -87.566587022214506, 41.77334134349767 ], [ -87.566581665739434, 41.773375025159325 ], [ -87.566596220822461, 41.773419408083576 ], [ -87.56661656147665, 41.773479922570516 ], [ -87.566686489505557, 41.773578289381675 ], [ -87.566718417453259, 41.773618112674612 ], [ -87.566728287391669, 41.773630423369013 ], [ -87.566785721583798, 41.773683834835516 ], [ -87.566999353119769, 41.773839789854065 ], [ -87.56727330364221, 41.773960612376108 ], [ -87.567481001246577, 41.774045625743241 ], [ -87.56760128664294, 41.774098241187509 ], [ -87.567865807447731, 41.77423169625424 ], [ -87.568074885911031, 41.77435478477048 ], [ -87.568278304970178, 41.774480805489269 ], [ -87.568402695110422, 41.774574970914202 ], [ -87.568430840426942, 41.774636073648516 ], [ -87.568603848466466, 41.774768205497317 ], [ -87.568656699409061, 41.774789081787958 ], [ -87.568719480815787, 41.774813881269111 ], [ -87.568840020496737, 41.774906666456083 ], [ -87.56892165361333, 41.774968506739214 ], [ -87.569024318191083, 41.775031504287035 ], [ -87.569111613068955, 41.775090411829375 ], [ -87.569229584461382, 41.775154640060279 ], [ -87.569339755462764, 41.7752118223369 ], [ -87.56945367777729, 41.775266096093418 ], [ -87.569553972794779, 41.775309111133517 ], [ -87.56965614349275, 41.775350672776028 ], [ -87.569916081090028, 41.775443080562532 ], [ -87.570041063357479, 41.775480057577568 ], [ -87.570317720050809, 41.775552234711476 ], [ -87.570567221467186, 41.77560618056517 ], [ -87.570755137128288, 41.775639482515523 ], [ -87.570954389428806, 41.775662516109684 ], [ -87.571111250300703, 41.77567917990887 ], [ -87.571248967638283, 41.775688830589871 ], [ -87.571302719525477, 41.775700998901712 ], [ -87.571638382424396, 41.775746986647611 ], [ -87.571686476451475, 41.775697451939564 ], [ -87.57174931682033, 41.775669962926855 ], [ -87.571926738495137, 41.775642794865576 ], [ -87.572156403339889, 41.775601785788027 ], [ -87.572576289583722, 41.775509140176815 ], [ -87.573009936109898, 41.775433467558415 ], [ -87.573434896475888, 41.77539507268002 ], [ -87.573998945076852, 41.775405646689727 ], [ -87.574364399945495, 41.775420545037747 ], [ -87.574744320790884, 41.775451376795253 ], [ -87.574847917132644, 41.775472491667571 ], [ -87.574882810517792, 41.775494909491151 ], [ -87.574932227345528, 41.775567171413122 ], [ -87.575011828305932, 41.775842112554336 ], [ -87.575101944469111, 41.776162830462511 ], [ -87.57513967795505, 41.776277783850567 ], [ -87.575254463136829, 41.776533596655199 ], [ -87.575348800366299, 41.776731068265931 ], [ -87.575411099508457, 41.776864629208475 ], [ -87.575455088918019, 41.776949825600425 ], [ -87.575569513075166, 41.777189919085139 ], [ -87.57560877065211, 41.777318061751316 ], [ -87.575672317137219, 41.777675304163274 ], [ -87.575692641579735, 41.777887332245761 ], [ -87.575666387036463, 41.778154985881294 ], [ -87.575631454899806, 41.778295528685376 ], [ -87.575534860012056, 41.778576961937645 ], [ -87.575393656732373, 41.778828956312054 ], [ -87.57525876332349, 41.779023689057617 ], [ -87.574774753671065, 41.779646083170277 ], [ -87.574654448141146, 41.77989351651496 ], [ -87.574587489839601, 41.780080694700146 ], [ -87.574553503918366, 41.780262203204245 ], [ -87.574549791510321, 41.780376609247327 ], [ -87.574520843060597, 41.780500874050304 ], [ -87.57452261009756, 41.780577089028029 ], [ -87.574377610490814, 41.780641894886557 ], [ -87.574399549015396, 41.780789275690836 ], [ -87.574519850976486, 41.780805912107212 ], [ -87.574575216337465, 41.780900700667551 ], [ -87.57462013674639, 41.781003584632899 ], [ -87.574654979127914, 41.781130476601554 ], [ -87.574744080698082, 41.78130441743582 ], [ -87.575061772907617, 41.78170620011624 ], [ -87.57531744379456, 41.782083221697782 ], [ -87.575666753307885, 41.782573829546472 ], [ -87.575920303556771, 41.782960525367407 ], [ -87.576120519929503, 41.783339955261063 ], [ -87.576419555173715, 41.783853402664512 ], [ -87.576772661494175, 41.784532755245088 ], [ -87.576876112140681, 41.784738874752215 ], [ -87.577124407396553, 41.785356448751166 ], [ -87.577282667922461, 41.785760299705672 ], [ -87.577411705266684, 41.786105243360637 ], [ -87.577412598263805, 41.786108180788474 ], [ -87.577435628411578, 41.786183951236644 ], [ -87.577465014380081, 41.786285600949242 ], [ -87.577492196465144, 41.786387565681807 ], [ -87.577517102165316, 41.786489871969557 ], [ -87.577539767884929, 41.786592492142411 ], [ -87.577560193362402, 41.786695345168162 ], [ -87.577578343385554, 41.786798457826883 ], [ -87.577594180106132, 41.786901774048758 ], [ -87.577607778400235, 41.787005268216994 ], [ -87.577619101294616, 41.787108912178205 ], [ -87.577628149106133, 41.787212678024126 ], [ -87.577674495592703, 41.787596880139859 ], [ -87.577721062407605, 41.787981111572648 ], [ -87.577748709247061, 41.788208532719722 ], [ -87.577662674892522, 41.78820688459259 ], [ -87.577641628580835, 41.788188084522581 ], [ -87.577639789356652, 41.788157337059047 ], [ -87.57758478482495, 41.78815752353006 ], [ -87.577511434694571, 41.788158687705732 ], [ -87.577320618692227, 41.788170604277795 ], [ -87.577316694222375, 41.788192532668475 ], [ -87.57730110201949, 41.788208895717979 ], [ -87.577262152596802, 41.78821577467999 ], [ -87.577196887418964, 41.788215345119085 ], [ -87.577166211240211, 41.788204715309334 ], [ -87.577151017670644, 41.788187052105336 ], [ -87.57714757686901, 41.788167819516012 ] ] ], [ [ [ -87.580250043338978, 41.793427517988071 ], [ -87.580276275554738, 41.793367245676684 ], [ -87.580277859896782, 41.793362223991494 ], [ -87.580303609268327, 41.793280601145561 ], [ -87.580327225392139, 41.793214400856435 ], [ -87.580354850056764, 41.793140302832207 ], [ -87.580374092453098, 41.793066314623381 ], [ -87.580393333600952, 41.792992326402128 ], [ -87.580408493367784, 41.792923098601996 ], [ -87.580424055167327, 41.792871122392185 ], [ -87.580430320891338, 41.79278004595723 ], [ -87.580441184233877, 41.79270896947785 ], [ -87.58039721814005, 41.792618882832244 ], [ -87.580391206615047, 41.792403996739921 ], [ -87.580377039595419, 41.79211239753981 ], [ -87.580363625422194, 41.79207648817647 ], [ -87.580358411994226, 41.7920326284274 ], [ -87.580343901506311, 41.791949666635745 ], [ -87.580325345570515, 41.791873033014546 ], [ -87.580306718098456, 41.791793263891527 ], [ -87.580286285642558, 41.791726068065742 ], [ -87.580263866869586, 41.791663604974808 ], [ -87.580243690965474, 41.791607388825476 ], [ -87.580219287118268, 41.791549658471766 ], [ -87.580194954877228, 41.791495064511189 ], [ -87.580170806377637, 41.791448312923748 ], [ -87.58013140316703, 41.791376658389005 ], [ -87.580094351390215, 41.791315954945652 ], [ -87.580037671536729, 41.791222561515831 ], [ -87.579848660920234, 41.790937920520463 ], [ -87.579684054977307, 41.790711009688522 ], [ -87.579576874985065, 41.790519434333142 ], [ -87.579468146812133, 41.790351411854672 ], [ -87.579312839885546, 41.790163601708791 ], [ -87.579092164239228, 41.789959384514219 ], [ -87.579047752727405, 41.789942705588935 ], [ -87.578999040689652, 41.789921375994275 ], [ -87.578889861266944, 41.78982395929178 ], [ -87.578770275861856, 41.789729815344934 ], [ -87.578704068869314, 41.789677335534378 ], [ -87.578635620573664, 41.789618609616326 ], [ -87.578558570213872, 41.789550582312842 ], [ -87.578505046995176, 41.789502644270506 ], [ -87.578457738075016, 41.78945148775928 ], [ -87.57840392432324, 41.789391002237934 ], [ -87.578371612993323, 41.789353770072069 ], [ -87.578341179720098, 41.789307100131921 ], [ -87.578302107445879, 41.789249560161416 ], [ -87.578276156995415, 41.789215382356545 ], [ -87.578258735997011, 41.789187369505747 ], [ -87.578228520880018, 41.789150109660412 ], [ -87.578202241714095, 41.789101816639899 ], [ -87.578173832039028, 41.789051982608775 ], [ -87.578138586393223, 41.788978704349503 ], [ -87.578107752037624, 41.78891478183921 ], [ -87.578078941098738, 41.78884769527594 ], [ -87.578054211460568, 41.788775848359116 ], [ -87.578032924996506, 41.788702768981814 ], [ -87.578018386912902, 41.788629236074584 ], [ -87.578006198693842, 41.788555471918215 ], [ -87.577976449390164, 41.788298718812584 ], [ -87.577963653505307, 41.788188288260741 ], [ -87.577925624373776, 41.787860089855528 ], [ -87.577851316235254, 41.787255859244702 ], [ -87.5777780685858, 41.78668621268217 ], [ -87.57774405584226, 41.786531952869908 ], [ -87.577707032389526, 41.786378083801964 ], [ -87.577666996707393, 41.786224634276756 ], [ -87.577623949691912, 41.786071632208078 ], [ -87.577433198755614, 41.785495514847312 ], [ -87.577276285215561, 41.785074975883383 ], [ -87.576890806492329, 41.784242511827458 ], [ -87.576472378311124, 41.783464259309724 ], [ -87.575990899687724, 41.782622797037952 ], [ -87.575604552348437, 41.782046450942808 ], [ -87.575293906384232, 41.781635590281105 ], [ -87.574996709190643, 41.781214310397473 ], [ -87.574910159236921, 41.781023352794783 ], [ -87.574893804654849, 41.780908316376582 ], [ -87.574922616308683, 41.780843390248016 ], [ -87.574905864847125, 41.780627188274998 ], [ -87.574849907528105, 41.780604860995318 ], [ -87.574824807737059, 41.780568864767368 ], [ -87.574809443946833, 41.780504201603961 ], [ -87.574819514091558, 41.780340618749285 ], [ -87.574837718839973, 41.780228819470032 ], [ -87.574890801986385, 41.780039756034377 ], [ -87.574944188986919, 41.779887558693851 ], [ -87.575050561724339, 41.779691590090344 ], [ -87.575277682093173, 41.779364381184195 ], [ -87.575459550756108, 41.779109632762264 ], [ -87.575597687174096, 41.778921699944512 ], [ -87.575707763382809, 41.778736059681975 ], [ -87.575790418356377, 41.778563749217994 ], [ -87.575855325440486, 41.778373508147929 ], [ -87.575915129596268, 41.778152813099055 ], [ -87.57593368925032, 41.777926809514966 ], [ -87.575940822995918, 41.777726369100421 ], [ -87.575931243073754, 41.777612336304585 ], [ -87.575918560268349, 41.77751391141134 ], [ -87.575894459131334, 41.777371527928182 ], [ -87.57583789142933, 41.777191130762148 ], [ -87.575776755818566, 41.777041898945392 ], [ -87.575691715893655, 41.776865981385797 ], [ -87.57563357396387, 41.776734083057896 ], [ -87.575542856873483, 41.776558837416864 ], [ -87.575455543997705, 41.776380953607614 ], [ -87.575415202566234, 41.776285482111696 ], [ -87.575371035029079, 41.776174492944754 ], [ -87.575354641712806, 41.776118236833518 ], [ -87.575306593290406, 41.77593663868366 ], [ -87.575283276928488, 41.775827973118076 ], [ -87.575276201100394, 41.775672396355525 ], [ -87.575322002015028, 41.77555504913412 ], [ -87.575383769910175, 41.77552830104932 ], [ -87.575473557443388, 41.775514160875694 ], [ -87.575519714455439, 41.775518863588225 ], [ -87.575549179598227, 41.775362804878817 ], [ -87.575486693136952, 41.775345580360451 ], [ -87.57540323900443, 41.77528776001094 ], [ -87.575397977438286, 41.775208433702403 ], [ -87.575410410671523, 41.775154489003917 ], [ -87.57516202123746, 41.775091407087139 ], [ -87.575138569620009, 41.775146636777919 ], [ -87.575096020760725, 41.775205798324308 ], [ -87.575032173248843, 41.77525237185985 ], [ -87.574940836632919, 41.775266424032921 ], [ -87.57477135404821, 41.775264534385435 ], [ -87.574468482541207, 41.775252858952058 ], [ -87.574228634617839, 41.775255975144354 ], [ -87.573876032051047, 41.775254467679694 ], [ -87.573558243174332, 41.775262414415906 ], [ -87.573267458863995, 41.77528087771671 ], [ -87.572948140873891, 41.775309408275625 ], [ -87.572632687073678, 41.775349752785004 ], [ -87.572549159274558, 41.775365655471184 ], [ -87.572272360836379, 41.775418352140171 ], [ -87.57200518086087, 41.775470522149554 ], [ -87.571790428042689, 41.775503747166169 ], [ -87.571567261152012, 41.77552490525057 ], [ -87.571278698978702, 41.775531690736287 ], [ -87.571034502252957, 41.775522681440236 ], [ -87.570781893121818, 41.775501603248067 ], [ -87.570573861502481, 41.775473859830917 ], [ -87.570320548948246, 41.775422350250473 ], [ -87.57007908128881, 41.775355467810321 ], [ -87.569902938961064, 41.775299913281536 ], [ -87.569656914351071, 41.775211781000145 ], [ -87.569418388871455, 41.775096154389281 ], [ -87.569228926949577, 41.77499206844422 ], [ -87.569055586657072, 41.774881685210723 ], [ -87.568852826405504, 41.774732465399424 ], [ -87.568741076509909, 41.774645282210486 ], [ -87.568571522803907, 41.774522673209511 ], [ -87.568401897649935, 41.774397021180356 ], [ -87.568249025995939, 41.774292460552346 ], [ -87.56812531455374, 41.774217961438559 ], [ -87.567968730946632, 41.774128668247435 ], [ -87.567824693955657, 41.774054431354557 ], [ -87.56729921530291, 41.773818040111081 ], [ -87.56713423357867, 41.773737655521259 ], [ -87.56708860433659, 41.773698673729761 ], [ -87.567083695705321, 41.773662209909645 ], [ -87.567139555187936, 41.773615827907562 ], [ -87.567208661623368, 41.773614933739807 ], [ -87.567288043357237, 41.77361533883203 ], [ -87.567409694503709, 41.773615959957013 ], [ -87.567546208384982, 41.77361665661553 ], [ -87.567547403161811, 41.773668389098439 ], [ -87.567581047398662, 41.773716657221435 ], [ -87.567655133730824, 41.773755271161022 ], [ -87.567728656917225, 41.773769540191324 ], [ -87.567805894197292, 41.773768540486323 ], [ -87.567858179742146, 41.773743512359168 ], [ -87.567922378403978, 41.7737061539802 ], [ -87.567966182447819, 41.773666016253252 ], [ -87.568046220682533, 41.773610188994503 ], [ -87.56840185624344, 41.773605586906747 ], [ -87.569222962024455, 41.773598463236951 ], [ -87.570527366211664, 41.773584149092748 ], [ -87.571819131251445, 41.773567401735285 ], [ -87.573250716697885, 41.773551890922043 ], [ -87.574211982474523, 41.773540216157429 ], [ -87.574848406228867, 41.773535070384639 ], [ -87.575484648099078, 41.773527385384646 ], [ -87.575680815349202, 41.773523335642949 ], [ -87.575782457818704, 41.773528217782605 ], [ -87.576043176848799, 41.773542974719589 ], [ -87.576274888910859, 41.773539960476803 ], [ -87.576364816466935, 41.773560098859761 ], [ -87.576597911709257, 41.773546036711672 ], [ -87.576625428535195, 41.773525243273696 ], [ -87.576833871048052, 41.773536338066492 ], [ -87.577992601994552, 41.773494585888479 ], [ -87.579238676314375, 41.773479029394878 ], [ -87.581293202114495, 41.773454110989867 ], [ -87.583337219813117, 41.773433166748674 ], [ -87.58538003974094, 41.77341324165571 ], [ -87.585582549726809, 41.773413407453262 ], [ -87.58563073243522, 41.773425582337929 ], [ -87.585660617508339, 41.773468636475435 ], [ -87.585812415236745, 41.77346990878889 ], [ -87.585842567211571, 41.773437572415126 ], [ -87.58585658749648, 41.773427747116394 ], [ -87.585924872550564, 41.773421731325875 ], [ -87.58603820152041, 41.773426205032273 ], [ -87.586062348491893, 41.773454756623011 ], [ -87.58606635881651, 41.773548605193852 ], [ -87.586078783787841, 41.773839318181231 ], [ -87.586092273217744, 41.774161331742633 ], [ -87.586104238275567, 41.774646599574695 ], [ -87.586117388182586, 41.775092906779278 ], [ -87.586084941005097, 41.775124694375272 ], [ -87.586044408315104, 41.775131750620297 ], [ -87.586045954560007, 41.775230539594439 ], [ -87.586114958445577, 41.775257987387299 ], [ -87.586123737602051, 41.775415595914183 ], [ -87.586130775060084, 41.77571569508352 ], [ -87.586138482748296, 41.776044374979428 ], [ -87.586135519931972, 41.776135902054968 ], [ -87.586054204102354, 41.776254575715242 ], [ -87.586067916589627, 41.776467145193237 ], [ -87.586140477827541, 41.77636657295794 ], [ -87.586169196142691, 41.776693713002885 ], [ -87.586190153814542, 41.776958911224547 ], [ -87.586211229013543, 41.777225603884318 ], [ -87.586243670210479, 41.77763010318936 ], [ -87.586272919433398, 41.777982473644123 ], [ -87.586306129441667, 41.778382559836984 ], [ -87.586330908965621, 41.778681080642031 ], [ -87.586336354032014, 41.778962602156682 ], [ -87.586342070019626, 41.779258094427057 ], [ -87.586350294220836, 41.7796058064717 ], [ -87.586356646011026, 41.779839162147844 ], [ -87.586353921198096, 41.780072599252676 ], [ -87.586346841126584, 41.780277810716385 ], [ -87.586350720439441, 41.780420630416671 ], [ -87.586339758272985, 41.780515282767482 ], [ -87.586277547601426, 41.780551239969 ], [ -87.586281591967634, 41.780692884874689 ], [ -87.586324181676389, 41.78071068452325 ], [ -87.58635968119772, 41.780751009048942 ], [ -87.586361451196467, 41.780859685274685 ], [ -87.586363962478742, 41.781013939573995 ], [ -87.586396739926897, 41.781475192819542 ], [ -87.586429116329498, 41.782924753038763 ], [ -87.586339803060369, 41.782908829911335 ], [ -87.585290757634439, 41.782922560770189 ], [ -87.585294141917629, 41.78306782617824 ], [ -87.585077494443198, 41.783070483087933 ], [ -87.585074637058966, 41.782928051820491 ], [ -87.584662667314731, 41.782928920577966 ], [ -87.584361546460187, 41.782935865904754 ], [ -87.584297858542882, 41.78293752598703 ], [ -87.584324124718165, 41.784023691999494 ], [ -87.58436550474444, 41.784330488273014 ], [ -87.584443684931202, 41.784747786285301 ], [ -87.584543675503767, 41.785122113825437 ], [ -87.584641276297631, 41.78539402571937 ], [ -87.584737682351729, 41.785614731104644 ], [ -87.58484648921862, 41.785877959883926 ], [ -87.584861479751311, 41.786031431944814 ], [ -87.584866063249052, 41.786227726354419 ], [ -87.584826429012352, 41.786484359788531 ], [ -87.584799392610009, 41.7867920506148 ], [ -87.584793967987736, 41.787048236147776 ], [ -87.584825144941107, 41.787406388422724 ], [ -87.584866131144267, 41.787696115575621 ], [ -87.58491812232036, 41.787968624005266 ], [ -87.58503455352195, 41.787976979660279 ], [ -87.585439396723459, 41.787870613809375 ], [ -87.585538225947545, 41.787832013459408 ], [ -87.58561980689656, 41.787797801629047 ], [ -87.585829762156877, 41.787709924020739 ], [ -87.586030882146702, 41.787653410896247 ], [ -87.586187102988731, 41.787623718664712 ], [ -87.586433275655622, 41.787603035699263 ], [ -87.586536450183104, 41.787571706984572 ], [ -87.586533094772548, 41.787578669215719 ], [ -87.586536284613558, 41.787729950275882 ], [ -87.586536307679481, 41.787730035959449 ], [ -87.586536402987718, 41.787730427332505 ], [ -87.586536489875471, 41.787730818650843 ], [ -87.586536568321847, 41.787731211715034 ], [ -87.586536635920964, 41.787731606509368 ], [ -87.58653669509961, 41.787732001249012 ], [ -87.586536745847283, 41.787732396834187 ], [ -87.586536786961133, 41.787732793257064 ], [ -87.586536818451535, 41.787733189617434 ], [ -87.586536841510991, 41.7877335868233 ], [ -87.586536853744107, 41.78773398395883 ], [ -87.586536858749213, 41.787734381947693 ], [ -87.586536852938437, 41.78773477896587 ], [ -87.586536838707147, 41.787735175929384 ], [ -87.586536814842006, 41.787735573730544 ], [ -87.586536781374321, 41.787735969668603 ], [ -87.58653673947569, 41.787736366452229 ], [ -87.586539831959357, 41.787892201764571 ], [ -87.586549232697749, 41.788365985742956 ], [ -87.586578976723274, 41.789594520579747 ], [ -87.586605875097419, 41.790625997049176 ], [ -87.586614604004126, 41.791011350947045 ], [ -87.58661986744174, 41.791252881490088 ], [ -87.586623632472026, 41.791434029104437 ], [ -87.586620699013679, 41.791439655250834 ], [ -87.58661801375483, 41.791624994392123 ], [ -87.586618228833387, 41.791625225380187 ], [ -87.586618804901079, 41.791625865674341 ], [ -87.586619364043202, 41.791626513061324 ], [ -87.58661990986873, 41.791627167564556 ], [ -87.586620438768662, 41.791627829160539 ], [ -87.586620953149037, 41.791628497865013 ], [ -87.586621451817265, 41.791629172769831 ], [ -87.586621934773348, 41.79162985387498 ], [ -87.586622402006867, 41.791630542080732 ], [ -87.586622852335665, 41.791631235578755 ], [ -87.586623288165811, 41.791631934384576 ], [ -87.586623705877798, 41.791632639375202 ], [ -87.586624107888127, 41.791633349665815 ], [ -87.586624492993721, 41.791634065248694 ], [ -87.586624862408087, 41.791634785231345 ], [ -87.586625213714768, 41.791635510498381 ], [ -87.586625549330208, 41.791636240165197 ], [ -87.586625866858839, 41.791636973315867 ], [ -87.58662616749325, 41.791637710858517 ], [ -87.5866264512334, 41.791638452793073 ], [ -87.586626718089775, 41.791639198219301 ], [ -87.586626966869801, 41.791639946229125 ], [ -87.58662719876601, 41.791640697730578 ], [ -87.58662741257541, 41.791641452715872 ], [ -87.586627609521926, 41.791642209392307 ], [ -87.586627788381634, 41.791642969552562 ], [ -87.586627949175465, 41.791643731396071 ], [ -87.586628093106384, 41.791644494930722 ], [ -87.586628218960939, 41.791645261048913 ], [ -87.586628325557044, 41.791646027942278 ], [ -87.586628416503714, 41.791646795634264 ], [ -87.586628488181447, 41.791647565001732 ], [ -87.586615551541229, 41.791814333445252 ], [ -87.58660579249586, 41.792149621806594 ], [ -87.586580922777173, 41.79264946756971 ], [ -87.58655846834597, 41.793130668271473 ], [ -87.586552820257651, 41.793301325850628 ], [ -87.586550332254291, 41.79331033841499 ], [ -87.586545685085326, 41.793318898471192 ], [ -87.586539067862788, 41.793326675918493 ], [ -87.586530665076168, 41.79333342796027 ], [ -87.586520736755674, 41.793338933899484 ], [ -87.58650968780897, 41.793343033404234 ], [ -87.586497812485931, 41.793345563622616 ], [ -87.586490280672919, 41.793346104387503 ], [ -87.586485554475374, 41.793346443706113 ], [ -87.586203902015271, 41.79334790483739 ], [ -87.585799732602837, 41.793352411695672 ], [ -87.585543696996055, 41.793358428021818 ], [ -87.585000920141155, 41.793362029717066 ], [ -87.584559310036866, 41.793369579995996 ], [ -87.584081657850163, 41.793375064890462 ], [ -87.583799756705247, 41.793385052047689 ], [ -87.58379782923528, 41.793385470740489 ], [ -87.583789756515429, 41.793385966382743 ], [ -87.583029863509978, 41.79339143450985 ], [ -87.582773859572569, 41.793394702393442 ], [ -87.582465753959568, 41.793400372539701 ], [ -87.582174523624872, 41.793405603890889 ], [ -87.58216518027227, 41.793401782022329 ], [ -87.582156951850209, 41.79339665202825 ], [ -87.582150277012431, 41.793390461673205 ], [ -87.582145445215176, 41.793383459546881 ], [ -87.582145337371955, 41.793380124835551 ], [ -87.582138874777215, 41.793380486834124 ], [ -87.581997559299523, 41.793382047635298 ], [ -87.581997204225274, 41.793384739168317 ], [ -87.581994324089735, 41.793392762281513 ], [ -87.581989652406307, 41.793400278483098 ], [ -87.581983375152106, 41.793407125125029 ], [ -87.581975677732217, 41.79341308553434 ], [ -87.581611160576728, 41.793413444174156 ], [ -87.581249507050686, 41.793419858170274 ], [ -87.580843181692771, 41.793420490766117 ], [ -87.580622385940231, 41.793423436163287 ], [ -87.580466853076956, 41.793427356283892 ], [ -87.580466573394048, 41.79342740397032 ], [ -87.580354372915636, 41.793427463595691 ], [ -87.580306473836075, 41.793427488154016 ], [ -87.580250043338978, 41.793427517988071 ] ] ], [ [ [ -87.578953887458212, 41.79246283179301 ], [ -87.579011620873743, 41.792378284228477 ], [ -87.579147493583477, 41.79240465452191 ], [ -87.579114944046509, 41.792277049904122 ], [ -87.579138534784846, 41.792200771133132 ], [ -87.579082593747472, 41.792132461426256 ], [ -87.57899420324506, 41.791928056461892 ], [ -87.578916264998043, 41.791800153724147 ], [ -87.578770539708714, 41.791646328409236 ], [ -87.578748841148453, 41.791561258291622 ], [ -87.578757095408079, 41.791416531256679 ], [ -87.578706302909325, 41.791305802635122 ], [ -87.578639551049037, 41.791203846624526 ], [ -87.578527869888887, 41.791050244639706 ], [ -87.578505972572657, 41.790982159222331 ], [ -87.578416090826636, 41.790905134029458 ], [ -87.578348704273566, 41.790845241768338 ], [ -87.578316193609027, 41.790757069011306 ], [ -87.578261356768635, 41.790652668293454 ], [ -87.578219204920117, 41.790552808577786 ], [ -87.578174664066282, 41.79044042993759 ], [ -87.578135118380573, 41.790362500113439 ], [ -87.578089466838023, 41.790292495556912 ], [ -87.578052199634314, 41.790222381341472 ], [ -87.578016559795827, 41.790138163877522 ], [ -87.577993809738331, 41.79005527094094 ], [ -87.57794416757234, 41.789903736515448 ], [ -87.577925105300807, 41.78980514494404 ], [ -87.577923428335694, 41.789732998520122 ], [ -87.577928183591936, 41.789667043804393 ], [ -87.57781772224898, 41.789554797838562 ], [ -87.577689791160921, 41.78945735750743 ], [ -87.577564710663125, 41.789367071086033 ], [ -87.577463629266134, 41.789293957314243 ], [ -87.57734940734197, 41.789215816740736 ], [ -87.577248300635546, 41.789144897673047 ], [ -87.577125331252645, 41.789062309180132 ], [ -87.57701249913508, 41.788990763502831 ], [ -87.576880774765314, 41.788904274398703 ], [ -87.576752717326542, 41.788817809293043 ], [ -87.576650827677298, 41.788751275563449 ], [ -87.576551048046042, 41.788692440158762 ], [ -87.576461457045312, 41.788640256979342 ], [ -87.576345683090167, 41.788574189719817 ], [ -87.574770839992453, 41.788653578452156 ], [ -87.574770847516689, 41.788595488608294 ], [ -87.576676589312015, 41.788494717599271 ], [ -87.576682514506132, 41.788426561161799 ], [ -87.57700068055469, 41.788407586266707 ], [ -87.577151449150492, 41.788400011031563 ], [ -87.577172143325726, 41.788386425862832 ], [ -87.577182615570464, 41.78836893160026 ], [ -87.57719004541336, 41.788360747673337 ], [ -87.57722090224722, 41.788356010533704 ], [ -87.577281741425594, 41.788358606914244 ], [ -87.577316104798101, 41.78836761421227 ], [ -87.577326956140993, 41.788380309479521 ], [ -87.577334925111472, 41.788388594753819 ], [ -87.577668132400689, 41.788366637783952 ], [ -87.577670906207089, 41.788317807356371 ], [ -87.577737818328202, 41.788302879348421 ], [ -87.577760071436202, 41.788302001110637 ], [ -87.577767774972713, 41.788365371831716 ], [ -87.577814709731584, 41.788749605597729 ], [ -87.577833259989063, 41.788818609127325 ], [ -87.577853721699682, 41.788887323605252 ], [ -87.577876057030522, 41.78895569295976 ], [ -87.577900303267953, 41.789023718335358 ], [ -87.57792642377099, 41.789091344568384 ], [ -87.57795438277364, 41.789158544411727 ], [ -87.577984217910881, 41.789225289300369 ], [ -87.578015892213472, 41.789291551979062 ], [ -87.578050062748531, 41.789341942526463 ], [ -87.578085670425267, 41.789391765385268 ], [ -87.578122678260939, 41.789440994200703 ], [ -87.578161086257737, 41.789489628971495 ], [ -87.578200859553164, 41.789537667666345 ], [ -87.578241995480639, 41.789585030134894 ], [ -87.57843732873333, 41.789750970488804 ], [ -87.578632669423229, 41.789916362241286 ], [ -87.578707680114221, 41.789980166041815 ], [ -87.57878099000196, 41.790045083162582 ], [ -87.578852565159636, 41.790111031451872 ], [ -87.578856228216239, 41.790114542577399 ], [ -87.578922442866755, 41.790178012058043 ], [ -87.578990547344588, 41.790246023586214 ], [ -87.57905688043752, 41.79031501113009 ], [ -87.579125797040547, 41.790383247595464 ], [ -87.579184049351696, 41.790455832042994 ], [ -87.579244849720695, 41.790527610263808 ], [ -87.579303770508119, 41.790600253958864 ], [ -87.579367738456455, 41.790680174989667 ], [ -87.579430638527597, 41.790760584170002 ], [ -87.57949243257147, 41.790841451539713 ], [ -87.579553159059628, 41.790922779153675 ], [ -87.579612815920811, 41.791004538188652 ], [ -87.579665570313182, 41.791087781607111 ], [ -87.579711222928466, 41.79115778553853 ], [ -87.579758935950821, 41.791226194936627 ], [ -87.579808817918362, 41.791297713054512 ], [ -87.579856602693141, 41.791369258810853 ], [ -87.579898356910135, 41.791451864546012 ], [ -87.579924674058518, 41.791501725826699 ], [ -87.579947202174267, 41.791568894046186 ], [ -87.579969838862013, 41.791640767316707 ], [ -87.57999016123037, 41.79170325813319 ], [ -87.580012870768556, 41.791778267800666 ], [ -87.580031864036997, 41.791873721716534 ], [ -87.580045862419098, 41.791934725984945 ], [ -87.580055487315789, 41.791987942331772 ], [ -87.580063599356279, 41.792066280307168 ], [ -87.580072077601614, 41.792160302128103 ], [ -87.580073939486681, 41.792240290880237 ], [ -87.580075618887818, 41.792312437261856 ], [ -87.580081234094962, 41.792373550416144 ], [ -87.580085046606598, 41.792447238681625 ], [ -87.580082533758258, 41.792519439503963 ], [ -87.580084067660039, 41.792585312170033 ], [ -87.58007750923349, 41.792663842053784 ], [ -87.580071207250526, 41.792753349818234 ], [ -87.58006280908991, 41.792842886152421 ], [ -87.580054338165368, 41.792929284278131 ], [ -87.580043223590224, 41.792992184767535 ], [ -87.580028428377858, 41.793077097252215 ], [ -87.580013414872269, 41.793152598716027 ], [ -87.579996158463175, 41.793221854127317 ], [ -87.579979121466607, 41.793300520559931 ], [ -87.57995561467115, 41.793371426735888 ], [ -87.579935934001369, 41.793426593724448 ], [ -87.579268079301315, 41.793424260062743 ], [ -87.579263321688899, 41.793370513793647 ], [ -87.579261965258851, 41.79328864752668 ], [ -87.5792413604687, 41.793110165009061 ], [ -87.579231704527146, 41.792965725564912 ], [ -87.57911145962828, 41.792574272201485 ], [ -87.578953887458212, 41.79246283179301 ] ] ] ] } }
]
}
